<kml xmlns="http://www.opengis.net/kml/2.2" xmlns:atom="http://www.w3.org/2005/Atom" xmlns:gx="http://www.google.com/kml/ext/2.2">
  <Document>
    <name>Trajectory drag_s1s2_separation</name>
    <Placemark>
      <name>Trajectory drag_s1s2_separation</name>
      <LineString>
        <coordinates>-1.3337589973904755,61.70233054133788,6429.118160270948 -1.3340465787100584,61.70279102049108,6429.136123467473 -1.3369391917956932,61.70739573949007,6429.315478133807 -1.365883792383329,61.753435238010866,6431.081546157209 -1.4269027231223959,61.85031555202484,6434.640198633132 -1.4938871372644371,61.956311350859536,6438.29609765158 -1.5695286848472279,62.07549128453153,6442.11773064845 -1.6555485707817752,62.210289417300054,6446.077454273995 -1.7440951034803334,62.34818161007663,6449.733259931098 -1.8549748273139244,62.519609326649174,6453.723567810731 -1.9866556600472904,62.721377397903325,6457.632880116895 -2.1160033054595715,62.917662192721984,6460.6178241401985 -2.2996297280812428,63.19309266878821,6463.442288586122 -2.5348262638339634,63.540462201990046,6464.72640382735 -2.797035519540202,63.920734204117764,6463.211674294996 -2.980843584169861,64.18301121569374,6460.386802814283 -3.108281091152719,64.36282910849829,6457.610518786713 -3.2369823791148633,64.54277307274558,6454.148671093056 -3.344824759669791,64.69230699029755,6450.75112114856 -3.453578587195352,64.8419895724708,6446.87526909637 -3.5365960558957,64.95553249809558,6443.616057461202 -3.6201351982550136,65.06920848027909,6440.073503588805 -3.6859232803774375,65.15836470026947,6437.0953923409315 -3.744676748211816,65.23776495530096,6434.291032592134 -3.797120208726369,65.30850455419763,6431.667243413038 -3.844144866911222,65.37188300176416,6429.211354179924 -3.8864894327132333,65.42895871628839,6426.909692359978 -3.928878755286064,65.48616320761046,6424.5111738837995 -3.941799167026261,65.50362170249682,6423.759720825888 -3.9547150747831665,65.52109652245258,6422.997998408694 -3.963310501272076,65.53273201442425,6422.485353198182 -3.971900554308604,65.54437575113543,6421.967863067446 -3.9796596805774698,65.55490053628785,6421.496152292726 -4.008207386957736,65.59371219097982,6419.722637137745 -4.017669197480245,65.60662104437455,6419.120261851691 -4.027128755057618,65.61954473010408,6418.510566955812 -4.032879686817637,65.62741261144991,6418.136030959035 -4.038623333399812,65.63528668351057,6417.758578355014 -4.059572912911165,65.66409399496511,6416.354098359428 -4.07924204067217,65.6913222907589,6414.989633898054 -4.096964599795513,65.71604378151136,6413.715883079524 -4.113009660719399,65.73861716116556,6412.520129729257 -4.127647910832422,65.75941677294676,6411.387180492211 -4.141026474378748,65.77863606432645,6410.310307623769 -4.15327151532091,65.79643623469691,6409.283888505359 -4.164477208173253,65.81295730188658,6408.302944557841 -4.174749395776189,65.82832179682178,6407.363035265273 -4.184165236798151,65.84263758445138,6406.460176931584 -4.192799457783224,65.85600022003263,6405.590768721277 -4.2007169828319775,65.86849494179641,6404.751523639016 -4.207973760026562,65.88019838643072,6403.939401614282 -4.211114618256261,65.88534713267572,6403.573317076931 -4.21423460501768,65.89052002610869,6403.199660419997 -4.215279820969386,65.89226439283439,6403.072275890155 -4.216224821123035,65.89385579424197,6402.955434425801 -4.222240319872867,65.90410227954338,6402.1880672805755 -4.228044625444625,65.91429092300991,6401.396938654595 -4.233404947202644,65.92401126481506,6400.612818801971 -4.238344597037042,65.93330523988288,6399.832896269431 -4.24291100286996,65.94225503262686,6399.050398226986 -4.247157990095502,65.95098124364523,6398.253880662579 -4.251181210084212,65.95971452015435,6397.419092491381 -4.255277298579074,65.96924564987633,6396.458840165051 -4.2577495846459215,65.9754232006598,6395.80526160518 -4.259867140349115,65.98107248354276,6395.183409325555 -4.2615905202630415,65.9859930741424,6394.62104880162 -4.263037280786193,65.9904145136501,6394.0977369573275 -4.264255907130348,65.99442076943723,6393.607591208285 -4.2652869863930505,65.99808211045674,6393.145303874473 -4.266159791805137,66.00144966545767,6392.707120844697 -4.266981042520797,66.00490049095498,6392.244259061777 -4.2676002286373205,66.00776594948644,6391.848542253934 -4.2681679562243175,66.01070372980308,6391.431421965619 -4.268358069837575,66.01175517967248,6391.279186076951 -4.268537031499648,66.01281745606968,6391.123748695975 -4.268691655099019,66.01376674043453,6390.983424796066 -4.268840270467024,66.01472542310475,6390.840322826645 -4.269178904440821,66.01712573125634,6390.47572302477 -4.269454530239898,66.0194320895271,6390.1165610056105 -4.269667262671703,66.0215994339489,6389.770771786179 -4.269830707881624,66.0236392727395,6389.437662096744 -4.269945186241614,66.02556348644185,6389.116327682142 -4.270018729075275,66.02738248605952,6388.805962271734 -4.270058832585562,66.02910539581165,6388.505851104138 -4.270064188898061,66.03074025972418,6388.2153561317455 -4.270045646398273,66.03229420852618,6387.933903984526 -4.2699970201298925,66.0337735942257,6387.660976388396 -4.2699285631481985,66.03518409926374,6387.396102528422 -4.269841936767534,66.03653082743297,6387.138852657809 -4.269738599031598,66.03781837903689,6386.88883289905 -4.269619831925468,66.03905091380517,6386.645680942262 -4.269486764356543,66.04023220433884,6386.409062378433 -4.269344569786256,66.04136568147395,6386.178667612719 -4.269189948723465,66.04245447323207,6385.954209212804 -4.269027855431148,66.04350143792446,6385.735419709134 -4.268858976013519,66.04450919349819,6385.5220495593 -4.268683917248268,66.04548014245418,6385.313865494696 -4.268499037781908,66.04641649396612,6385.1106490027 -4.268313168554187,66.04732028293387,6384.912195057269 -4.2681225514231755,66.048193387083,6384.718310942314 -4.267923379555555,66.04903754194783,6384.528815218762 -4.267724337092375,66.04985435402997,6384.343536829528 -4.267525713580483,66.05064531260598,6384.162314287074 -4.267323586255429,66.05141180021913,6383.984994941556 -4.267118179902582,66.05215510203966,6383.811434323047 -4.266909692058107,66.05287641432629,6383.641495533805 -4.266702474028193,66.05357685185564,6383.475048733551 -4.26649667731823,66.05425745477218,6383.311970638159 -4.2662882559808395,66.05491919456686,6383.152144107124 -4.2660773247203,66.05556297981907,6382.995457680888 -4.265868160788784,66.0561896609887,6382.8418052585685 -4.265660849454889,66.05680003501632,6382.691085744397 -4.265455463530998,66.05739484942083,6382.543202737154 -4.265247886603845,66.05797480604721,6382.398064242731 -4.265042348411157,66.05854056444856,6382.255582409774 -4.264834713596088,66.0590927450421,6382.115673280668 -4.264762547527027,66.05928898509174,6382.0657507852675 -4.264721158755037,66.05938946406535,6382.040149026346 -4.264691572704976,66.05947123940962,6382.01929274363 -4.2646617219443215,66.05955348161874,6381.998299180888 -4.264605766382715,66.0596983918193,6381.961264352771 -4.264406451165257,66.0602146325474,6381.82887180725 -4.2642024340768785,66.0607353762199,6381.694610303129 -4.263995377751769,66.06124703619304,6381.562002871983 -4.263793900816609,66.0617494406157,6381.43114133471 -4.263589689776154,66.06224290974407,6381.301987897498 -4.263386952272981,66.06272776597201,6381.174501223182 -4.263185713153121,66.0632043163146,6381.04864117281 -4.262981815114699,66.0636728527906,6380.924368901107 -4.2627836314458705,66.06413365308539,6380.801646857825 -4.26258281982274,66.06458698153644,6380.680438712408 -4.262387747128628,66.065033089955,6380.560709278385 -4.262190065252867,66.06547221823168,6380.442424516404 -4.261993957754157,66.06590459514018,6380.325551442694 -4.261799427875701,66.06633043886328,6380.210058124519 -4.261606476776933,66.06674995768536,6380.09591361118 -4.261415103733896,66.06716335053078,6379.98308789998 -4.261221128255954,66.06757080746955,6379.8715519052 -4.261032902553552,66.06797251012284,6379.7612774368345 -4.260842065120357,66.06836863232253,6379.652237125634 -4.260656965530927,66.06875934027374,6379.544404446922 -4.2604692399059445,66.06914479321193,6379.437753635979 -4.260283057604795,66.06952514354995,6379.332259707072 -4.260102587054405,66.0699005373836,6379.2278983894985 -4.259919461637651,66.07027111483575,6379.124646103293 -4.259737848272664,66.07063701018491,6379.022479971794 -4.259557735116687,66.07099835237499,6378.921377745027 -4.259379109775807,66.0713552651529,6378.821317812434 -4.25920195936493,66.0717078673425,6378.722279176317 -4.259026270547167,66.07205627313174,6378.624241418115 -4.258847851529708,66.07240059229089,6378.527184683168 -4.25867504438537,66.07274093038096,6378.431089654595 -4.258503656709138,66.07307738894306,6378.335937551445 -4.258333673928405,66.07341006568872,6378.241710102612 -4.258160903204896,66.0737390546914,6378.148389531029 -4.257993685731435,66.07406444656765,6378.05595852562 -4.257827828373934,66.07438632862628,6377.964400241945 -4.257659137893199,66.07470478503508,6377.873698276514 -4.257495955187835,66.0750198969359,6377.7838366540245 -4.257329908839267,66.07533174261165,6377.694799819894 -4.257169339690279,66.0756403975693,6377.606572622596 -4.257005876283017,66.07594593476024,6377.51914029015 -4.2568478594779435,66.07624842456778,6377.432488436947 -4.256686917870923,66.07654793504719,6377.346603031982 -4.256531392411887,66.076844531895,6377.261470408524 -4.256372911822837,66.07713827867065,6377.177077235313 -4.256215639119375,66.07742923680814,6377.093410514112 -4.2560637374186285,66.0777174657134,6377.010457573651 -4.255908835700154,66.07800302294395,6376.92820603891 -4.255755097298959,66.07828596412915,6376.846643854519 -4.255606685638497,66.07856634318962,6376.765759240927 -4.255455230089979,66.07884421231532,6376.6855407194125 -4.255304894344249,66.07911962209498,6376.6059770729025 -4.255159842244211,66.0793926215354,6376.527057357743 -4.255011703569608,66.07966325816365,6376.448770890927 -4.254864642443351,66.07993157807849,6376.371107231511 -4.254718645091145,66.08019762596982,6376.294056192847 -4.254573697880744,66.08046144522787,6376.217607817285 -4.25443396541624,66.08072307794905,6376.141752380291 -4.2542910782620424,66.08098256500975,6376.06648038548 -4.254149201345342,66.0812399461076,6375.991782546563 -4.25400832169197,66.08149525980717,6375.917649789685 -4.2538684265119855,66.0817485435505,6375.844073254558 -4.253729503149884,66.08199983378918,6375.771044262142 -4.253595717217422,66.08224916590422,6375.698554341397 -4.253458700274109,66.0824965743423,6375.626595203975 -4.25332261825605,66.0827420925945,6375.555158742156 -4.253187459206515,66.08298575323802,6375.484237030456 -4.253053211331121,66.08322758798873,6375.413822312623 -4.252919863006184,66.0834676277149,6375.343907001995 -4.252787402770139,66.08370590248238,6375.274483672388 -4.2526599974138435,66.0839424415369,6375.205545064914 -4.252529279666021,66.08417727342008,6375.13708406671 -4.252399416638639,66.08441042590586,6375.069093719574 -4.252270397539917,66.08464192606357,6375.00156721374 -4.252142211727403,66.08487180030305,6374.934497875615 -4.2520148487257075,66.08510007436259,6374.867879174193 -4.251888298225367,66.08532677333119,6374.801704717355 -4.251762550053968,66.08555192171733,6374.735968234424 -4.251637594223951,66.08577554338144,6374.670663598342 -4.251513420883839,66.08599766163935,6374.605784797879 -4.25139002032688,66.08621829926204,6374.541325939871 -4.251267383002698,66.08643747846932,6374.477281253224 -4.251145499515587,66.08665522094749,6374.413645085726 -4.2510285386820215,66.08687154787688,6374.350411895719 -4.250908135252985,66.08708647996842,6374.287576252078 -4.250788458329339,66.08730003744223,6374.225132828819 -4.2506694990802885,66.0875122400686,6374.1630764036645 -4.250551248824422,66.08772310715267,6374.101401861805 -4.250433699005043,66.08793265758821,6374.040104181648 -4.250316841200856,66.08814090984747,6373.979178439134 -4.250200667122897,66.08834788199697,6373.918619804471 -4.250085168621354,66.08855359169273,6373.858423544715 -4.249970337669993,66.08875805621646,6373.798585014401 -4.249856166370591,66.08896129247574,6373.739099656602 -4.2497426469377615,66.08916331703813,6373.67996299398 -4.249629771718446,66.08936414610305,6373.62117063803 -4.2495175331800965,66.08956379552978,6373.562718281852 -4.249405923904305,66.08976228085515,6373.504601695868 -4.249294936598858,66.08995961727726,6373.446816733431 -4.249184564073175,66.09015581970598,6373.389359316871 -4.249074799255936,66.09035090273582,6373.332225446232 -4.248965635187574,66.0905448806651,6373.27541119434 -4.248857065019308,66.090737767502,6373.218912705773 -4.248749081997914,66.09092957699626,6373.162726188215 -4.2486416794823185,66.09112032261469,6373.106847920278 -4.24853485094269,66.09131001754592,6373.05127425068 -4.248428589946343,66.09149867472992,6372.996001590182 -4.248322890152906,66.09168630687007,6372.941026408589 -4.248217745321256,66.09187292642494,6372.88634523768 -4.248113149321057,66.09205854559035,6372.83195467691 -4.248009096101953,66.09224317635757,6372.777851376856 -4.24790557971437,66.09242683047988,6372.72403204945 -4.2478025942970135,66.09260951949678,6372.670493461298 -4.247700134084084,66.09279125472463,6372.617232436788 -4.247598193389422,66.09297204728735,6372.564245849521 -4.247496766617132,66.0931519080994,6372.511530627611 -4.247395848253518,66.09333084788337,6372.4590837489095 -4.2472954328776495,66.09350887715249,6372.406902246408 -4.247195515143346,66.0936860062456,6372.354983198331 -4.247096089791057,66.09386224530768,6372.303323734132 -4.246997151634844,66.09403760431472,6372.2519210274395 -4.2468986955731225,66.09421209305674,6372.200772301368 -4.2468007165714425,66.09438572117007,6372.149874819238 -4.24670738774762,66.09455849810509,6372.099225892074 -4.246610348084403,66.09473043316885,6372.048822875263 -4.246513770841204,66.09490153549926,6371.998663162932 -4.246417651284048,66.09507181407669,6371.94874419369 -4.246321984750921,66.09524127772669,6371.8990634477905 -4.246226766638699,66.09540993514457,6371.849618440088 -4.246131992424125,66.09557779485952,6371.800406730794 -4.246037657642944,66.09574486527224,6371.751425914526 -4.245943757887915,66.09591115466012,6371.7026736190255 -4.245850288843599,66.09607667111638,6371.654147523095 -4.245757246219853,66.09624142266918,6371.605845321865 -4.245664625822485,66.09640541715693,6371.557764763445 -4.245572423497208,66.09656866232908,6371.509903619551 -4.245480635149477,66.0967311658113,6371.462259695787 -4.245389256756482,66.09689293508535,6371.4148308377235 -4.245298284342539,66.0970539775336,6371.367614917876 -4.245207713997786,66.09721430040632,6371.320609845492 -4.2451175418581215,66.09737391085834,6371.273813555831 -4.245027764120778,66.09753281592141,6371.227224018403 -4.244938377028404,66.09769102253416,6371.180839228273 -4.244849376881746,66.09784853751914,6371.134657212869 -4.244760760035604,66.09800536759134,6371.088676029557 -4.244672522898725,66.09816151935851,6371.042893765663 -4.244589849556121,66.09830781940106,6371.000000000302</coordinates>
      </LineString>
    </Placemark>
    <Placemark>
      <name>Impact Point</name>
      <Point>
        <coordinates>-4.244589849556121,66.09830781940106,6371.000000000302</coordinates>
      </Point>
      <Style>
        <IconStyle>
          <Icon>
            <href>http://maps.google.com/mapfiles/kml/shapes/placemark_circle.png</href>
          </Icon>
        </IconStyle>
      </Style>
    </Placemark>
    <Placemark>
      <name>Impact Area</name>
      <Style>
        <LineStyle>
          <color>ff0000ff</color>
          <width>2</width>
        </LineStyle>
        <PolygonStyle>
          <color>7f0000ff</color>
          <outline>false</outline>
        </PolygonStyle>
      </Style>
      <Polygon>
        <outerBoundaryIs>
          <LinearRing>
            <coordinates>-1.5581860101254144,66.09830781940106,0 -1.5989985207629984,66.2873145621407,0 -1.7201959851921536,66.47057843064421,0 -1.918095879785077,66.64253104500312,0 -2.186685116386741,66.79794771204236,0 -2.517802746955715,66.93210617497856,0 -2.9013879298407677,67.04093009680285,0 -3.3257856233634038,67.1211129177182,0 -3.7781007183615336,67.17021832328551,0 -4.244589849556121,67.18675427060519,0 -4.711078980750708,67.17021832328551,0 -5.163394075748838,67.1211129177182,0 -5.587791769271474,67.04093009680285,0 -5.971376952156527,66.93210617497856,0 -6.302494582725501,66.79794771204236,0 -6.571083819327165,66.64253104500312,0 -6.768983713920088,66.47057843064421,0 -6.890181178349243,66.2873145621407,0 -6.9309936889868276,66.09830781940106,0 -6.890181178349243,65.90930107666142,0 -6.768983713920088,65.7260372081579,0 -6.571083819327165,65.55408459379899,0 -6.302494582725501,65.39866792675976,0 -5.971376952156527,65.26450946382356,0 -5.587791769271475,65.15568554199926,0 -5.163394075748838,65.07550272108392,0 -4.711078980750708,65.0263973155166,0 -4.244589849556122,65.00986136819692,0 -3.778100718361535,65.0263973155166,0 -3.3257856233634033,65.07550272108392,0 -2.9013879298407677,65.15568554199926,0 -2.5178027469557156,65.26450946382356,0 -2.1866851163867413,65.39866792675976,0 -1.9180958797850778,65.55408459379899,0 -1.7201959851921536,65.7260372081579,0 -1.5989985207629984,65.90930107666142,0</coordinates>
          </LinearRing>
        </outerBoundaryIs>
      </Polygon>
    </Placemark>
  </Document>
</kml>
