<kml xmlns="http://www.opengis.net/kml/2.2" xmlns:atom="http://www.w3.org/2005/Atom" xmlns:gx="http://www.google.com/kml/ext/2.2">
  <Document>
    <name>Trajectory s2fairing_separation</name>
    <Placemark>
      <name>Trajectory s2fairing_separation</name>
      <LineString>
        <coordinates>-2.307717253099838,63.19788254917152,6471.570318716992 -2.3077615227579713,63.19794528594934,6471.571571522222 -2.308183335825902,63.198572652039616,6471.584096596265 -2.3124272195539106,63.2048461404749,6471.709049514834 -2.354930611069449,63.26756399055287,6472.928800406803 -2.4245166707035537,63.369783226979216,6474.801922855243 -2.49433831374364,63.47177113560182,6476.52863485499 -2.5643217643734033,63.57342220153507,6478.108026646508 -2.634466273628732,63.67473356668787,6479.541176014303 -2.704767053630576,63.77570273057642,6480.829199260511 -2.775223050065563,63.87632644030678,6481.973236259175 -2.845837827646278,63.97660237523826,6482.974470695689 -2.9166015640649334,64.07652671442169,6483.834103732312 -2.9875132253761763,64.17609656056084,6484.5533795458105 -3.058571517301857,64.27530864249412,6485.133571590983 -3.1297748782324675,64.37415931837867,6485.575984499309 -3.2011177160031252,64.47264533936679,6485.881957763938 -3.272598320158238,64.57076304379208,6486.0528614831555 -3.344214570845395,64.66850817403163,6486.0900985007 -3.4159605870515293,64.7658773577828,6485.995105247226 -3.4878379634699286,64.86286580833618,6485.769351887302 -3.559831860528618,64.95946939148097,6485.414342092598 -3.6319520487071486,65.05568333506058,6484.931615178741 -3.7041834029998313,65.1515033361318,6484.322741779525 -3.776526463299149,65.24692347357883,6483.589337307082 -3.848974458354121,65.34193979979312,6482.733037076949 -3.921523339038174,65.43654608501791,6481.755529143697 -3.994165223223604,65.53073689729341,6480.658530539933 -4.066900069794713,65.62450615821697,6479.443800741314 -4.139715405576055,65.71784818126805,6478.113129444605 -4.212610115099153,65.81075558297279,6476.668366873399 -4.285574858482903,65.90322145998417,6475.111395641758 -4.358600156471823,65.99523894185006,6473.444134969744 -4.431684061970941,66.08680010570991,6471.668561124277 -4.5048118835759965,66.17789698809065,6469.7866914269225 -4.577980978352002,66.26852115927753,6467.800592917538 -4.651175591995866,66.3586636029896,6465.712386921543 -4.724391900970716,66.44831470207946,6463.5242517860715 -4.797613385717682,66.5374649423369,6461.238406783252 -4.87083511358054,66.62610371893751,6458.85714289677 -4.944039009245557,66.71421989299306,6456.3828120807 -5.017218623858639,66.80180136758213,6453.8178416453 -5.090354460260301,66.88883571381592,6451.1647189528485 -5.163439106016483,66.97531028380729,6448.425988067589 -5.236450974300169,67.06121047766497,6445.604307265528 -5.30937263051095,67.1465221698157,6442.702374677261 -5.382192662657758,67.23122836150702,6439.723043245999 -5.454882825460459,67.31531246454882,6436.669214035449 -5.527434229974006,67.39875627862985,6433.543908523736 -5.599815826768008,67.48154042713696,6430.350258296578 -5.672003911310412,67.56364476734852,6427.091492566699 -5.743981143114695,67.64504705389685,6423.770994966457 -5.815714812631768,67.72572184954859,6420.392358355676 -5.887172251852974,67.80564459609705,6416.959221770286 -5.958325049452981,67.88478593138971,6413.475515401293 -6.029139691792182,67.96311616345743,6409.945278200043 -6.099575569335457,68.04060259733397,6406.372780010424 -6.170410112637455,68.1181065548548,6402.71979841029 -6.242516784868428,68.19655993376476,6398.941128888461 -6.315879291477984,68.27593724765161,6395.03531043762 -6.390505192048181,68.35621683949624,6391.000781322436 -6.466389690089841,68.43737713616379,6386.836056233708 -6.543538538568043,68.51939925348051,6382.539590850021 -6.621950780597729,68.60226620332972,6378.109812898115 -6.701631381563516,68.68596294991663,6373.545111200037 -6.74559695325695,68.731921453287,6371.0</coordinates>
      </LineString>
    </Placemark>
  </Document>
</kml>
