<kml xmlns="http://www.opengis.net/kml/2.2" xmlns:atom="http://www.w3.org/2005/Atom" xmlns:gx="http://www.google.com/kml/ext/2.2">
  <Document>
    <name>Trajectory drag_s2fairing_separation</name>
    <Placemark>
      <name>Separation Point drag_s2fairing_separation</name>
      <Point>
        <coordinates>-2.3077172076525585,63.19788257311281,100570.31871699292</coordinates>
      </Point>
      <Style>
        <IconStyle>
          <Icon>
            <href>http://maps.google.com/mapfiles/kml/shapes/placemark_square.png</href>
          </Icon>
        </IconStyle>
      </Style>
    </Placemark>
    <Placemark>
      <name>Trajectory drag_s2fairing_separation</name>
      <LineString>
        <coordinates>-2.3077172076525585,63.19788257311281,100570.31871699292 -2.3080925158856758,63.198434530137355,100581.33902763075 -2.311825232575302,63.20395396982763,100691.31053613273 -2.349209267010224,63.25913543127555,101767.8754285762 -2.5393547823150584,63.537253163138864,106559.49542896906 -2.7425839060238104,63.82985206051681,110454.5018294384 -2.964955394523656,64.14461658134834,113326.70740552021 -3.29039208373689,64.59532922831465,115050.31559138751 -3.6964314537960377,65.14161816114134,113353.28151676731 -3.9862792972376724,65.52101191870328,109728.62121106118 -4.200915904732312,65.79644900753779,105840.75732133078 -4.383652708952582,66.02734287882565,101767.52686186228 -4.523517152179579,66.20186495975405,98195.78126431862 -4.644027173191091,66.35074442953879,94812.44315925051 -4.748473350384245,66.47869476714187,91655.66698234761 -4.83554600036706,66.58461382290761,88866.2104274681 -4.87910685352017,66.63735991851365,87416.63077792237 -4.904391458012583,66.66790627552693,86558.47754393108 -4.919102512382835,66.68565263879277,86053.56238266722 -4.933826103233116,66.7034024184224,85543.83687089011 -4.965538426384626,66.74156966776614,84431.65021058577 -5.038165507403448,66.82872140689986,81807.5503150958 -5.096107721610167,66.89802113460303,79633.4920282352 -5.148066470148763,66.96003624187449,77618.0078356665 -5.19480531453479,67.01575759163649,75746.48597354462 -5.241642369983026,67.07158498632026,73808.7134278494 -5.279502555339775,67.11674562839364,72190.63927286424 -5.300780238693562,67.14216138563654,71258.23449296423 -5.322060607948913,67.16761662898067,70307.38726297294 -5.356330944566935,67.20871276928642,68733.31395767583 -5.388241874623134,67.24714915833934,67212.78968336538 -5.417316451448812,67.28236611688004,65773.2004026293 -5.443854414753787,67.31472323426762,64406.122832926485 -5.468132386621676,67.34455955698014,63102.81827889139 -5.490383466206026,67.37215766981488,61855.926081546386 -5.510816055789576,67.39775386900074,60659.29097242406 -5.529586546082385,67.42154788622241,59507.74063667177 -5.547061498694745,67.44398065560182,58383.1113840497 -5.563391870965859,67.4652443372037,57277.79366059531 -5.578658318875284,67.48544002692805,56188.1490231508 -5.5929303151851855,67.50465844995729,55110.70127061612 -5.606273737955632,67.52298601956817,54041.81274036091 -5.618760728820007,67.54050820248953,52977.445865742084 -5.6304505636430235,67.55731395369575,51912.79608069726 -5.635109980952166,67.5641434262853,51466.68347515515 -5.636548873136974,67.56626536426666,51326.39213557013 -5.637984939331432,67.56839110299852,51185.02733808418 -5.646871311681082,67.58175450706251,50276.57964222362 -5.655521985371593,67.59512248892717,49330.87033189258 -5.663590611473751,67.60799344012361,48381.23182288746 -5.671129794566582,67.62044457629904,47421.60250050529 -5.672302401372349,67.62242683127208,47264.78353108723 -5.673394516779808,67.62428113036083,47117.02786434125 -5.6791028274827795,67.63418403706557,46309.7242078411 -5.684708490515334,67.64429557377156,45451.0952103692 -5.689984023973693,67.65425685860687,44567.21010891124 -5.69506713744596,67.66437728073132,43625.576117968194 -5.699046678185141,67.6727760723535,42806.46259717105 -5.702344597885826,67.68015544477787,42055.13832710403 -5.704993935493803,67.68643837333177,41389.60668872005 -5.707210040412633,67.69201753346665,40776.754932540825 -5.709085449827285,67.69702331847715,40207.83173676318 -5.710681099348051,67.70156546793596,39674.73580765727 -5.712054996633867,67.70571926745488,39172.108608095186 -5.713235331574936,67.70954170007123,38695.92290615037 -5.714360956110454,67.71346363643208,38192.80450160477 -5.715225433646822,67.716717868629,37763.44347464146 -5.71604381242679,67.72005822679704,37310.79296219741 -5.716744165771786,67.72318583369125,36875.377483898774 -5.717334602579399,67.72609152208403,36460.23420844813 -5.717830911875353,67.72879978022874,36063.59093009996 -5.718242848259706,67.73133218326832,35683.803445179365 -5.718586923309829,67.73370697597332,35319.4706819786 -5.718865838289844,67.73593973228213,34969.38719405989 -5.719089619902832,67.73804387536168,34632.50395895011 -5.719267451586006,67.74003107138195,34307.89901366461 -5.71940364116864,67.74191153324553,33994.75503508529 -5.719501914045338,67.74369425711484,33692.34220446742 -5.719565505367143,67.74538721159571,33400.00454867186 -5.719601412812324,67.74699748962978,33117.14912514981 -5.719612101621465,67.74853143225653,32843.23729563857 -5.719599733239818,67.74999473031846,32577.77763213926 -5.7195703854213775,67.75139251017828,32320.319844024198 -5.719550701673995,67.75199116542818,32208.87194853458 -5.71952686398879,67.75259862002093,32095.052461666455 -5.71948490191096,67.75341552553078,31940.812384581477 -5.7194153192062345,67.75465249166257,31704.665234147797 -5.719327258722217,67.75585924457278,31471.234142475623 -5.71923211027422,67.75702098987045,31243.622867328668 -5.719122557799324,67.75813983846811,31021.706816125516 -5.719003635083141,67.75921834614074,30805.248916773053 -5.718880281078214,67.76025889057252,30594.021931616226 -5.718744819252379,67.76126366623156,30387.81205876603 -5.718606213220369,67.76223470079402,30186.418026974934 -5.7184608281107785,67.76317387093371,29989.650059764244 -5.718313327849501,67.76408291610623,29797.328980121165 -5.7181557909515845,67.76496345079657,29609.285428524345 -5.718001140485342,67.7658169754666,29425.359137077066 -5.717837190075272,67.76664488657492,29245.398255804503 -5.7176767850166925,67.76744848518094,29069.258790074855 -5.717507669160284,67.76822898521218,28896.80401147143 -5.717342625169465,67.768987520269,28727.90402498231 -5.7171735187104105,67.76972515033607,28562.435285286483 -5.717000547613054,67.77044286756815,28400.280188669058 -5.71683224424163,67.77114160165287,28241.326682486033 -5.71666040929864,67.77182222436798,28085.467987911215 -5.716485182042788,67.77248555432763,27932.60218699561 -5.716315042093527,67.77313236066085,27782.631998959914 -5.7161417425391505,67.7737633667587,27635.46449399564 -5.715965379694978,67.77437925370529,27491.010805584665 -5.71579439441058,67.77498066311675,27349.185943765406 -5.715620504748415,67.77556820006585,27209.908556317714 -5.7154521315586635,67.77614243555578,27073.10073161534 -5.715280974871121,67.77670390882162,26938.687835937344 -5.7151112611392705,67.77725312964353,26806.598288272653 -5.714938853687272,67.7777905802149,26676.763433665656 -5.714772143730102,67.77831671694119,26549.11738876035 -5.714602804487981,67.77883197220613,26423.59689265868 -5.714435038216209,67.77933675590143,26300.141166973845 -5.714268864467897,67.77983145678077,26178.6918188418 -5.714104298565985,67.78031644393052,26059.192687529503 -5.713941352058271,67.78079206787741,25941.589764832315 -5.7137800330581285,67.7812586618252,25825.831068360458 -5.713620346599214,67.78171654266806,25711.866555452616 -5.713458116896902,67.78216601192096,25599.648046853872 -5.713301699861972,67.78260735672389,25489.12911041407 -5.713142736907116,67.78304085064015,25380.265005931506 -5.712989579701059,67.78346675447618,25273.012586085315 -5.712833865845482,67.78388531701731,25167.330239454714 -5.7126797655315045,67.78429677571883,25063.177807753164 -5.712527269493307,67.78470135722685,24960.51655917472 -5.712376367144373,67.7850992782074,24859.309066897367 -5.712227046806447,67.78549074568501,24759.519207041194 -5.712079295806916,67.7858759576535,24661.11208154416 -5.711933100557985,67.78625510366645,24564.05394018293 -5.7117884467404565,67.78662836510325,24468.3121802409 -5.711645319340846,67.78699591575396,24373.855259860647 -5.7115037027850235,67.7873579221119,24280.652681696665 -5.711359402904122,67.78771454387213,24188.674921460006 -5.711220759352727,67.7880659340935,24097.893429505348 -5.7110835771834445,67.78841223976268,24008.280544700938 -5.710943661163697,67.7887536019681,23919.8094880021 -5.710809350023851,67.78909015621063,23832.454317699558 -5.710672270035502,67.78942203269698,23746.189905918072 -5.710540759592391,67.7897493565914,23660.99189372926 -5.710406444723901,67.79007224825227,23576.836679325424 -5.710277663658587,67.79039082347578,23493.70137045389 -5.710146042293616,67.7907051937933,23411.56375224182 -5.7100199188432725,67.79101546646895,23330.40229980361 -5.709890919241957,67.7913217449177,23250.196110741854 -5.709763203683451,67.79162412876877,23170.924898946396 -5.709640932454988,67.79192271401432,23092.56898438889 -5.709515731701117,67.79221759330706,23015.109242328435 -5.7093917618806245,67.79250885601897,22938.527095921927 -5.709273183608332,67.7927965883291,22862.804517853874 -5.7091516234133906,67.79308087349585,22787.923982317807 -5.709031242183585,67.79336179190996,22713.868455515694 -5.708916200971885,67.79363942123152,22640.621381004166 -5.708798126810052,67.7939138365015,22568.166670786013 -5.708681181088878,67.79418511031493,22496.48866125608 -5.708565347354579,67.79445331280127,22425.572139108226 -5.708450609312479,67.79471851188468,22355.40228258651 -5.708341128981431,67.79498077318938,22285.964695786788 -5.708228534348166,67.79524016032704,22217.245351241218 -5.7081169878186415,67.79549673486785,22149.230595459812 -5.708006473950206,67.79575055643727,22081.90714070406 -5.707896977508483,67.79600168282023,22015.262044169503 -5.7077926615501156,67.79625017000336,21949.28270301807 -5.70768515515141,67.7964960722626,21883.956847014815 -5.707578621794312,67.79673944226012,21819.272508017093 -5.707473047135181,67.79698033103139,21755.218038368184 -5.7073684170280785,67.79721878814559,21691.78207274672 -5.707264717556825,67.79745486168945,21628.953538568567 -5.707161935022896,67.7976885983496,21566.721639831485 -5.707060055960653,67.79792004342917,21505.07585816831 -5.706959067095227,67.79814924099139,21444.005919693154 -5.706863133453112,67.79837623380374,21383.501812671057 -5.706763886062731,67.79860106345924,21323.5537678147 -5.7066654903732115,67.79882377036822,21264.15225268738 -5.706567933961878,67.79904439385797,21205.287957174733 -5.70647120464605,67.79926297210613,21146.9518131089 -5.706375290429946,67.79947954229331,21089.134957100214 -5.706280179508951,67.79969414062604,21031.828727812353 -5.706185860288656,67.79990680232251,20975.02467295817 -5.706092321382698,67.80011756164659,20918.714543226088 -5.705999551590878,67.80032645198278,20862.890275133395 -5.705907539914108,67.80053350582851,20807.54399574107 -5.705816275542702,67.80073875484327,20752.668012098184 -5.705725747843019,67.80094222990138,20698.254799491224 -5.7056359463761055,67.80114396107071,20644.297009414913 -5.705551038948158,67.80134397766865,20590.78745473562 -5.705462659357636,67.80154230825329,20537.719122155067 -5.705374975754694,67.80173898072626,20485.08513444176 -5.70528797841979,67.8019340222519,20432.87878199044 -5.705201657791918,67.80212745935854,20381.093495373534 -5.705116004468664,67.80231931795318,20329.722843058335 -5.705031009244124,67.80250962325023,20278.760551946107 -5.7049466630488155,67.80269839992015,20228.20046909328 -5.704862956969407,67.80288567205722,20178.036571641314 -5.704779882276284,67.8030714631303,20128.262981314947 -5.704697430361762,67.80325579613208,20078.873925682274 -5.704636149449186,67.80339275747959,20042.173552201348 -5.704572874344592,67.80353414024161,20004.285129853088 -5.704492549590725,67.80371356836709,19956.19648738557 -5.704412150957012,67.80389310654138,19908.073336457164 -5.704332297805877,67.80407137392396,19860.286035771423 -5.704253005868281,67.80424833818363,19812.84353862793 -5.704174268688746,67.80442401640137,19765.741539694318 -5.704096079104659,67.80459842710165,19718.975332296395 -5.704018430043675,67.80477158847991,19672.540284310344 -5.703941314568226,67.80494351830826,19626.43186418518 -5.703864725845506,67.8051142340102,19580.64562151685 -5.7037886571676495,67.80528375262068,19535.177198444217 -5.70371310194048,67.80545209081652,19490.022322092955 -5.703638053676627,67.80561926493814,19445.17679929504 -5.703563505995362,67.80578529099395,19400.636515986662 -5.703489452634415,67.8059501846391,19356.397443402784 -5.703415887434744,67.80611396121412,19312.455628191856 -5.703342804334682,67.80627663576188,19268.80718836037 -5.703270197380959,67.80643822300758,19225.448319046336 -5.7031980607142145,67.8065987373946,19182.37528334339 -5.703126388581666,67.80675819305958,19139.584419350285 -5.703055175315171,67.8069166038854,19097.072126367493 -5.702984415352944,67.80707398345602,19054.834877346366 -5.7029141032186885,67.80723034510527,19012.86920612347 -5.702844233530016,67.80738570190206,18971.171711719762 -5.702774800989289,67.80754006667337,18929.739052503464 -5.7027058003943125,67.80769345198229,18888.56795231004 -5.702637226621562,67.80784587016917,18847.65518970471 -5.7025690746263535,67.80799733335239,18806.997598052476 -5.702501339463254,67.80814785338615,18766.59207704415 -5.702434016256689,67.80829744192775,18726.43557491847 -5.702367100203389,67.80844611043382,18686.525089648057 -5.702300586593083,67.80859387011692,18646.85768084746 -5.702234470776375,67.8087407320181,18607.430450458196 -5.702168748198858,67.80888670693356,18568.24056262849 -5.702103414365126,67.80903180549578,18529.285222129147 -5.702038464849807,67.80917603815051,18490.561680693645 -5.701973895303183,67.80931941514662,18452.067239902135 -5.7019097014415365,67.8094619465578,18413.799245491646 -5.701845879058624,67.80960364225932,18375.755093780754 -5.701782424000555,67.80974451198485,18337.932216515583 -5.701719332191146,67.80988456527129,18300.328095824625 -5.7016565996093505,67.81002381151035,18262.94025050629 -5.701594222303129,67.81016225991819,18225.766244283477 -5.701532196383425,67.81029991955096,18188.803681740865 -5.701470518011774,67.81043679933194,18152.050201163547 -5.701409183417468,67.81057290801584,18115.503484202236 -5.701348188887323,67.81070825421118,18079.161249980643 -5.701287530760851,67.81084284639273,18043.02125182585 -5.701227205439693,67.8109766928809,18007.081282891704 -5.701167209375399,67.81110980186985,17971.339168710074 -5.70110753907494,67.81124218141589,17935.792770367698 -5.701048191105656,67.81137383942742,17900.439987295613 -5.700989162074791,67.81150478371067,17865.27874503281 -5.700930448645693,67.81163502193488,17830.30700467134 -5.700872047531277,67.81176456164667,17795.522759050073 -5.700813955498518,67.8118934102616,17760.92403506391 -5.70075616935344,67.81202157509735,17726.508884846226 -5.700698685954933,67.81214906334363,17692.27539386975 -5.700641502208782,67.81227588207622,17658.221677259462 -5.700584615067498,67.8124020382575,17624.34587966891 -5.700528021519688,67.81252753876102,17590.646168751846 -5.700471718613528,67.81265239031875,17557.120749345813 -5.700415703428007,67.81277659958695,17523.767845866132 -5.70035997308247,67.81290017312386,17490.585708297658 -5.700304524743615,67.81302311737515,17457.572616170182 -5.700249355623043,67.81314543867984,17424.726876971363 -5.700194462963054,67.81326714330218,17392.0468176575 -5.700139844055002,67.8133882373907,17359.53079565934 -5.700085496219572,67.81350872702284,17327.177186926747 -5.70003141681633,67.81362861818404,17294.984391589423 -5.699977603259981,67.81374791673144,17262.95084371759 -5.699924052973415,67.81386662849874,17231.074983201324 -5.699870763431818,67.81398475919869,17199.3552819431 -5.699817732142719,67.81410231446701,17167.79023212348 -5.699764956649119,67.81421929985638,17136.37834778274 -5.699712434525736,67.81433572084451,17105.118162728104 -5.699660163385374,67.81445158282055,17074.008234184475 -5.6996081408759665,67.81456689109115,17043.047141165516 -5.699556364672048,67.81468165090087,17012.233479049428 -5.699504832477089,67.81479586742569,16981.56586130699 -5.699453542028323,67.8149095457635,16951.042922098168 -5.699402491092997,67.81502269094213,16920.663314102057 -5.699351677476955,67.81513530790073,16890.425713560944 -5.699301099003719,67.81524740153611,16860.328807842052 -5.699250753527792,67.8153589766733,16830.3713033456 -5.6992006389376115,67.81547003805906,16800.55192726195 -5.699150753152196,67.81558059037047,16770.869425292403 -5.699101094115235,67.8156906382266,16741.322558529646 -5.699051659789291,67.81580018620227,16711.910099739725 -5.699002448171427,67.81590923879374,16682.630842625258 -5.698953457283835,67.81601780043908,16653.48359633208 -5.698904685172806,67.81612587552094,16624.467184752575 -5.698856129919193,67.81623346834344,16595.580452702052 -5.698807789620275,67.81634058317168,16566.82225534678 -5.698759662391296,67.81644722422998,16538.191458666915 -5.6987117463813775,67.81655339566488,16509.68694940002 -5.698664039762434,67.81665910157128,16481.30762805522 -5.698616540721559,67.81676434600837,16453.052404595837 -5.6985692474935945,67.81686913292843,16424.920217608815 -5.698522158298317,67.81697346631515,16396.909997146395 -5.698475271413827,67.81707735002178,16369.020708199969 -5.698428585109184,67.81718078791987,16341.25131075416 -5.698382097700687,67.81728378377566,16313.600792996112 -5.698335807502872,67.81738634135715,16286.068142579097 -5.698289712866938,67.81748846435046,16258.652369060655 -5.698243812172564,67.81759015637725,16231.352499245986 -5.698198103790389,67.81769142107824,16204.167554756168 -5.698152586132949,67.8177922620001,16177.096582428021 -5.698107257625111,67.81789268266084,16150.13863671902 -5.698062116723634,67.81799268650754,16123.292791106905 -5.6980171618751,67.81809227700828,16096.558113375977 -5.697972391564406,67.81819145754572,16069.933694197061 -5.697927804305209,67.81829023143743,16043.418641702374 -5.6978833986168524,67.8183886019883,16017.012067359246 -5.697839173024363,67.81848657248905,15990.713086445794 -5.697795126093354,67.81858414614024,15964.520838391763 -5.697751256392166,67.81868132613549,15938.434464478632 -5.697707562505116,67.81877811563228,15912.453115661265 -5.697664043063412,67.81887451768353,15886.575970935155 -5.69762069666757,67.81897053540936,15860.802191253242 -5.6975775219426055,67.81906617187543,15835.130952164945 -5.697534517568442,67.81916143002478,15809.561462119746 -5.697491682188172,67.8192563128816,15784.092907772902 -5.69744901449792,67.81935082335183,15758.724507513762 -5.697406513188696,67.81944496435264,15733.455476704876 -5.6973641769959045,67.81953873870184,15708.28505737154 -5.69732200464648,67.81963214923606,15683.21248648681 -5.697279994890209,67.81972519874024,15658.237014888982 -5.697238146453401,67.81981789005133,15633.357879452888 -5.697196458129213,67.81991022585757,15608.574356974714 -5.697154928714951,67.82000220883744,15583.885726853623 -5.697113557008606,67.82009384166798,15559.291268885318 -5.697072341793557,67.82018512705768,15534.790254443578 -5.697031281905254,67.8202760675995,15510.381985885942 -5.696990376206088,67.82036666582661,15486.065781617071 -5.696949623541968,67.82045692430789,15461.840950489204 -5.69690902278569,67.82054684555247,15437.706817376238 -5.696868572769461,67.82063643215952,15413.6626829968 -5.696828272423431,67.82072568651029,15389.70790656549 -5.696788120636654,67.82081461107697,15365.841822886978 -5.696748116324386,67.82090320827373,15342.063782363766 -5.696708258437582,67.820991480435,15318.373156787857 -5.6966685458957045,67.82107942996498,15294.769299241125 -5.696628977635896,67.82116705922815,15271.251573488371 -5.696589552591377,67.82125437059746,15247.819341007926 -5.696550269811951,67.82134136618808,15224.472032487029 -5.696511128194061,67.82142804845337,15201.208987848077 -5.6964721268169,67.8215144194429,15178.029655410683 -5.696433264642394,67.82160048146491,15154.933414058178 -5.696394540684935,67.82168623671176,15131.919673808625 -5.696355953926059,67.82177168744812,15108.987825276017 -5.696317503501746,67.82185683559642,15086.137350929675 -5.696279188399842,67.82194168340705,15063.367645243488 -5.696241007618482,67.82202623310707,15040.678108950488 -5.696202960361461,67.82211048646862,15018.068264902467 -5.696165045551709,67.8221944458851,14995.537469223564 -5.696127262334812,67.82227811325669,14973.085210421232 -5.696089609795138,67.82236149061909,14950.710940645877 -5.696052087129601,67.82244457975882,14928.41417892032 -5.696014693288873,67.82252738300701,14906.194298147966 -5.695977427555647,67.82260990195995,14884.050868427948 -5.695940289028897,67.8226921386202,14861.983350850096 -5.695903276766387,67.82277409508191,14839.991181955156 -5.6958663899598605,67.82285577314157,14818.073878155701 -5.695829627797366,67.82293717460469,14796.230953466875 -5.695792989275731,67.8230183016994,14774.461808509841 -5.695756473724202,67.82309915591793,14752.766041387076 -5.69572008026023,67.8231797392214,14731.143124404298 -5.695683808129331,67.82326005328703,14709.592606035585 -5.695647656478059,67.82334010001105,14688.11397603531 -5.695611624510207,67.82341988116288,14666.706758174769 -5.695575711441165,67.82349939848652,14645.370483064653 -5.695539916676978,67.82357865330304,14624.104794815139 -5.695504239259094,67.82365764774126,14602.909120817458 -5.695468678495047,67.82373638334042,14581.783046653982 -5.695433233633537,67.82381486177016,14560.726122952474 -5.695397903731532,67.82389308512413,14539.737786572914 -5.695362688091905,67.82397105495205,14518.817620341906 -5.6953275861737325,67.824048772457,14497.965300104624 -5.695292597133175,67.82412623951336,14477.180321599917 -5.6952577202714565,67.8242034576735,14456.462266970448 -5.695222954877977,67.82428042851647,14435.810711239355 -5.695188300396865,67.8243571532785,14415.225321393336 -5.695153755842227,67.8244336341476,14394.705509085725 -5.695119320692356,67.82450987228427,14374.250961649523 -5.695084994306342,67.82458586911275,14353.8612956836 -5.695050775615243,67.82466162700477,14333.53587360125 -5.695016664593879,67.82473714602115,14313.274677802838 -5.6949826602277085,67.82481242841313,14293.077103045107 -5.694948761466492,67.82488747651095,14272.942522899939 -5.694914968446255,67.82496229001812,14252.87101568847 -5.69488128015621,67.82503687117763,14232.861978406618 -5.694847695490466,67.82511122244247,14212.91475174985 -5.694814214599489,67.8251853434841,14193.029422647669 -5.694780836197367,67.82525923715438,14173.205224800768 -5.694747560013411,67.82533290405678,14153.441995135836 -5.694714385138468,67.8254063462092,14133.739191103814 -5.694681311462773,67.82547956385861,14114.09674530205 -5.694648337786475,67.8255525596659,14094.51394270036 -5.694615464057335,67.82562533375145,14074.990749870267 -5.6945826893627896,67.82569788813937,14055.526622657453 -5.6945500127350215,67.8257702249767,14036.12098395297 -5.694517434181705,67.82584234425101,14016.773835966887 -5.694484953224048,67.825914247026,13997.484892240209 -5.694452568936754,67.82598593535467,13978.25360092429 -5.694420281003147,67.82605740994182,13959.079771841061 -5.694388088966434,67.82612867180273,13939.963131551849 -5.694355991261261,67.8261997244071,13920.902748206572 -5.694323988528424,67.82627056634014,13901.899000269623 -5.694292079530214,67.8263412003456,13882.951150656481 -5.69426026334304,67.82641162847209,13864.05864876997 -5.694228540878441,67.82648184870558,13845.222033829486 -5.694196910062487,67.82655186564092,13826.440072241894 -5.694165370921439,67.82662167922375,13807.712777566849 -5.69413392329011,67.82669128982337,13789.040049724463 -5.694102566909294,67.82676069801748,13770.421732739123 -5.694071299955112,67.82682990784693,13751.85674167642 -5.6940401238279605,67.82689891621567,13733.34590603281 -5.6940090353577375,67.82696773014449,13714.887341578105 -5.6939780367740696,67.8270363447014,13696.482370281046 -5.693947125755074,67.82710476502976,13678.129611531403 -5.693916302407615,67.82717299089622,13659.82912697018 -5.6938855658683565,67.82724102421565,13641.580402016189 -5.693854916368764,67.827308864479,13623.383572268722 -5.693824353389516,67.82737651283907,13605.23832756553 -5.693793875628728,67.8274439721811,13587.14389308443 -5.693763483409555,67.82751124179298,13569.100458897992 -5.693733176653666,67.82757832185183,13551.10797659836 -5.693702952273611,67.82764521919418,13533.164611546454 -5.693672811944225,67.8277119301165,13515.271356240191 -5.693642754679104,67.82777845680526,13497.427623309704 -5.693612782367666,67.82784479508179,13479.634532670389 -5.6935828911383055,67.82791095351853,13461.889784173763 -5.6935530832980135,67.82797692701249,13444.194745637105 -5.69352335521836,67.82804272359759,13426.547261388805 -5.693493710386065,67.82810833555983,13408.949399563426 -5.693464146277506,67.82817376848789,13391.399660366005 -5.693434660875596,67.82823902684896,13373.896844795127 -5.693405257003974,67.82830410439703,13356.44262725964 -5.693375930880563,67.82836900950538,13339.034761150288 -5.693346683972436,67.82843373893014,13321.67411568389 -5.693317515145395,67.82849829518456,13304.360015977181 -5.693288424993,67.8285626769578,13287.092812784067 -5.693259411359804,67.8286268890231,13269.871225123097 -5.693230474079314,67.82869093175202,13252.695152556043 -5.693201615572434,67.8287547997894,13235.566030522932 -5.693172835858434,67.82881849309565,13218.483868830845 -5.69314413211481,67.82888201792007,13201.44699067896 -5.69311550437078,67.82894537420077,13184.455411862473 -5.6930869498562515,67.82900856807123,13167.507486707109 -5.693058469248342,67.82907159803528,13150.603615707041 -5.693030060575836,67.82913446845843,13133.742627357606 -5.693001726079046,67.82919717438503,13116.92584994762 -5.692973465641842,67.82925971607499,13100.153213038539 -5.692945284332893,67.82932208231385,13083.427723385284 -5.692917168701797,67.82938430287025,13066.741396848556 -5.692889126185889,67.8294463612879,13050.098646000151 -5.692861162852807,67.82950824414158,13033.50307043911 -5.692833264188778,67.82956998355307,13016.946055107837 -5.6928054399255075,67.82963155798852,13000.43337418083 -5.692777688563069,67.82969297077,12983.964136032228 -5.692750005597247,67.82975423186755,12967.5356662774 -5.692722394213263,67.82981533423488,12951.149853825882 -5.6926948554806245,67.82987627550798,12934.807331945194 -5.692667387953179,67.82993705888933,12918.50724111282 -5.692639987225505,67.82999769413033,12902.24696565383 -5.692612658702615,67.83005816927269,12886.02971169621 -5.692585392255069,67.83011850673398,12869.849466991582 -5.692558202177793,67.83017867488377,12853.714712978217 -5.692531072545876,67.83023870896409,12837.615998445472 -5.6925040133695575,67.83029858682606,12821.55926219093 -5.692477017450756,67.83035832440018,12805.540231694067 -5.692450090789862,67.83041790841071,12789.562466280586 -5.6924232378533475,67.83047732897681,12773.628614868358 -5.692396442621714,67.83053662154873,12757.72917071572 -5.692369722467788,67.83059574768616,12741.874441045184 -5.69234305473816,67.83065475751862,12726.050982970264 -5.692316452453042,67.8307136222372,12710.266521031372 -5.692289928457171,67.83077231342179,12694.528675343463 -5.692263472220986,67.83083085437435,12678.831196868487 -5.692237068668248,67.83088927845671,12663.165139239027 -5.692210722572668,67.8309475751078,12647.533333809406 -5.692184437114463,67.8310057372928,12631.937666363228 -5.692158213549931,67.8310637622337,12616.3788812255 -5.692132050843554,67.831121652224,12600.856362835657 -5.692105974954586,67.83117934982619,12585.385511718414 -5.6920799518698,67.83123693030308,12569.94614647374 -5.6920540035333715,67.8312943451016,12554.551285319576 -5.692028119564554,67.83135161719314,12539.194768200105 -5.69200228513381,67.831408779392,12523.867796007835 -5.691976517028024,67.8314657945568,12508.580326972151 -5.691950794286527,67.83152270906747,12493.319924739808 -5.6919251297345,67.83157949454865,12478.094197072096 -5.691899536118683,67.83163612279887,12462.910704958631 -5.691873982440995,67.83169266240613,12447.751057692585 -5.691848520522285,67.83174899871452,12432.645996702377 -5.69182311421423,67.83180521170755,12417.574075925586 -5.691797767691526,67.83186129214974,12402.537771054085 -5.691772483452326,67.83191723451627,12387.538562858026 -5.691747261981561,67.83197303773592,12372.576737987401 -5.691722101377707,67.83202870601792,12357.65116731909 -5.691696996937935,67.83208424976947,12342.759059994023 -5.691671940698086,67.83213968661265,12327.895690798869 -5.6916469209238585,67.83219504251117,12313.054098132852 -5.6916219880490075,67.8322502058827,12298.264198035213 -5.691597129704974,67.83230520409523,12283.518652129715 -5.6915723286414845,67.83236007531643,12268.807226721947 -5.691547562035396,67.83241487004283,12254.116382862776 -5.691522879519653,67.83246947846612,12239.475560403662 -5.691498255000624,67.83252395831894,12224.869280270468 -5.6914736551808005,67.832578383271,12210.2777909422 -5.691449128094348,67.83263264705215,12195.72958333174 -5.691424634742475,67.83268683594528,12181.201524388598 -5.691400224224253,67.8327408413257,12166.722735917574 -5.691375850423242,67.8327947652225,12152.265863509456 -5.691351562602392,67.83284849864954,12137.860125550105 -5.691327305815321,67.8329021631698,12123.472930946264 -5.691303128323796,67.83295565201317,12109.132903766294 -5.691278964291655,67.83300911083313,12094.80099481243 -5.691254859500759,67.83306243834599,12080.504357168138 -5.691230734742817,67.8331158097867,12066.196011715874 -5.691206768240022,67.83316883087436,12051.981660604724 -5.691182882242913,67.83322167361786,12037.8151891764 -5.691158982027787,67.83327454757466,12023.640417445677 -5.691135109181914,67.833327360742,12009.482010017564 -5.691111310993392,67.83338000850759,11995.368011425853 -5.691087640952048,67.83343237254104,11981.330143235027 -5.691063982863625,67.83348470989495,11967.299493619066 -5.691040381325138,67.83353692191149,11953.302510574758 -5.691016694839448,67.83358932161414,11939.25527896954 -5.690993155781484,67.83364139493928,11925.295607927183 -5.690969618019153,67.83369346516436,11911.336833511086 -5.690946124831669,67.83374543654753,11897.404621611713 -5.690922725337714,67.8337972004311,11883.528100028343 -5.690899474988214,67.83384863415138,11869.740150633334 -5.690876188297921,67.83390014803464,11855.930775887828 -5.690852902816175,67.83395165901536,11842.122243406266 -5.690829661379041,67.83400307233444,11828.33995503006 -5.690806512600375,67.83405428045315,11814.612737932293 -5.690783511359257,67.83410516197544,11800.973133430489 -5.690760412892075,67.83415625834853,11787.275997742654 -5.690737566118173,67.83420679772641,11773.728234937153 -5.690714712777037,67.83425735141115,11760.176698768191 -5.690691893382166,67.83430782978358,11746.645412660655 -5.690669153925569,67.83435813110717,11733.161647741326 -5.690646546346841,67.83440814049092,11719.756200825032 -5.690623734129417,67.83445860232938,11706.229530814198 -5.690601143525441,67.83450857373049,11692.834386848517 -5.690578415511652,67.8345588488705,11679.357884719138 -5.690556021827547,67.83460838424864,11666.079739226916 -5.690533579927489,67.83465802606904,11652.773121014434 -5.69051112387973,67.83470769897153,11639.458230810305 -5.69048869260547,67.83475731686227,11626.15814613855 -5.690466330341906,67.83480678188997,11612.8990956895 -5.690444087106982,67.83485598341841,11599.71073464476 -5.690422019150446,67.83490479702857,11586.626412072292 -5.690399586581577,67.83495441693874,11573.326022580659 -5.69037741072998,67.835003468792,11560.177956643201 -5.690354910179565,67.83505323865026,11546.837493076964 -5.69033276839906,67.8351022147223,11533.709856843416 -5.690310359497801,67.83515178143595,11520.423962993846 -5.690288435833054,67.8352002746399,11507.425870868246 -5.6902663240935,67.8352491836428,11494.316385806997 -5.6902440394731,67.83529847483233,11481.104518614302 -5.690222448887482,67.83534623069131,11468.304232984337 -5.690200799655031,67.83539411607273,11455.469286060179 -5.6901791226993055,67.83544206257613,11442.618011863487 -5.690157453402946,67.83548999193975,11429.771387256551 -5.690135832043325,67.83553781507646,11416.953290265155 -5.690114304234726,67.83558543109656,11404.190761945756 -5.690092921363487,67.83563272634494,11391.514264372745 -5.690071741000395,67.8356795734896,11378.9579249069 -5.690049639746007,67.8357284572779,11365.855764788648 -5.6900277745572225,67.83577681873079,11352.893661359303 -5.690006219397617,67.8358244942631,11340.115457498541 -5.689985056278431,67.83587130249258,11327.56976537621 -5.689962966049848,67.83592016108516,11314.474584851268 -5.689941337138464,67.83596799914876,11301.652984515385 -5.689920273720645,67.8360145862838,11289.16671234947 -5.689898286320613,67.83606321684177,11276.132818447877 -5.6898769662959126,67.83611037113974,11263.494644284037 -5.689856444072916,67.8361557607285,11251.329493735284 -5.689835040306775,67.836203099862,11238.641886438927 -5.689814576675758,67.83624835949911,11226.511666443002 -5.68979323307866,67.83629556517835,11213.85993252079 -5.689772998190563,67.83634031854602,11201.865499631822 -5.689751899850023,67.83638698142164,11189.35934754245 -5.689729859143142,67.83643572831353,11176.294712920026</coordinates>
      </LineString>
    </Placemark>
    <Placemark>
      <name>Impact Point drag_s2fairing_separation</name>
      <Point>
        <coordinates>-5.689729859143142,67.83643572831353,11176.294712920026</coordinates>
      </Point>
      <Style>
        <IconStyle>
          <Icon>
            <href>http://maps.google.com/mapfiles/kml/shapes/placemark_circle.png</href>
          </Icon>
        </IconStyle>
      </Style>
    </Placemark>
    <Placemark>
      <name>Impact Area</name>
      <Style>
        <LineStyle>
          <color>ff0000ff</color>
          <width>2</width>
        </LineStyle>
        <PolygonStyle>
          <color>7f0000ff</color>
          <outline>false</outline>
        </PolygonStyle>
      </Style>
      <Polygon>
        <outerBoundaryIs>
          <LinearRing>
            <coordinates>-2.354599995600185,67.83643572831353,0 -2.4052681122234905,68.0549171166101,0 -2.555732937009111,68.26676005848017,0 -2.8014226723948124,68.46552781333277,0 -3.134872160095904,68.64518092351801,0 -3.5459497061621703,68.80026072019177,0 -4.022164927371663,68.9260551822063,0 -4.549048265204462,69.01874210848834,0 -5.110590636056349,69.07550525368465,0 -5.689729859143142,69.09461989835201,0 -6.268869082229934,69.07550525368465,0 -6.8304114530818225,69.01874210848834,0 -7.3572947909146205,68.9260551822063,0 -7.833510012124114,68.80026072019177,0 -8.24458755819038,68.64518092351801,0 -8.578037045891472,68.46552781333277,0 -8.823726781277173,68.26676005848017,0 -8.974191606062794,68.0549171166101,0 -9.024859722686099,67.83643572831353,0 -8.974191606062794,67.61795434001696,0 -8.823726781277173,67.40611139814689,0 -8.578037045891472,67.2073436432943,0 -8.24458755819038,67.02769053310905,0 -7.833510012124114,66.87261073643529,0 -7.357294790914622,66.74681627442077,0 -6.830411453081822,66.65412934813872,0 -6.268869082229934,66.59736620294241,0 -5.689729859143143,66.57825155827506,0 -5.110590636056351,66.59736620294241,0 -4.549048265204461,66.65412934813872,0 -4.022164927371663,66.74681627442077,0 -3.5459497061621708,66.87261073643529,0 -3.134872160095905,67.02769053310905,0 -2.8014226723948132,67.2073436432943,0 -2.555732937009111,67.40611139814689,0 -2.4052681122234905,67.61795434001696,0</coordinates>
          </LinearRing>
        </outerBoundaryIs>
      </Polygon>
    </Placemark>
  </Document>
</kml>
