<kml xmlns="http://www.opengis.net/kml/2.2" xmlns:atom="http://www.w3.org/2005/Atom" xmlns:gx="http://www.google.com/kml/ext/2.2">
  <Document>
    <name>Trajectory s1s2_separation</name>
    <Placemark>
      <name>Trajectory s1s2_separation</name>
      <LineString>
        <coordinates>177.44115414510975,61.557348927921446,6429.118160270948 177.44112324523383,61.557401985133495,6429.120230276386 177.44078917457568,61.5579325552158,6429.140927107611 177.43745230180735,61.56323804790702,6429.3475731106655 177.4040782505956,61.616272362865175,6431.38180945918 177.35078947464746,61.70067061863075,6434.501053467076 177.29738764885832,61.78490099741976,6437.469155322031 177.24391561735126,61.868892106782255,6440.284191908026 177.19037877507418,61.95264084013686,6442.946866845357 177.1367783175981,62.03614421812999,6445.457931286837 177.08311965688392,62.11939925116973,6447.818178582101 177.02939979340044,62.20240315208039,6450.028449360636 176.9756325648408,62.28515292749973,6452.0896194609095 176.92180685312564,62.367645412137335,6454.002601941001 176.86793660547005,62.44987753152082,6455.768353426155 176.81401908918758,62.5318462223895,6457.387871254452 176.76005991181978,62.6135485395103,6458.862194630471 176.70605646689387,62.69498130908313,6460.192397644888 176.65202324593588,62.776140608368834,6461.379583435923 176.59795352426096,62.85702332161725,6462.424908701767 176.54385332553727,62.937625961587926,6463.3295639325825 176.4897244946804,63.01794513902174,6464.09477995368 176.43557324790595,63.09797715027057,6464.721823505221 176.38140595108848,63.17771807922474,6465.211999709816 176.32722075671597,63.25716381911152,6465.566653183323 176.27302414476037,63.336310436503936,6465.787169560376 176.21881859472398,63.415153740512984,6465.874973118546 176.1646107565009,63.49368967321831,6465.831527564096 176.1104034108601,63.57191365861007,6465.658336064619 176.05620341893393,63.64982144712925,6465.356940708691 176.0020097064754,63.72740805751631,6464.928925626766 175.9478298087082,63.80466813607316,6464.375919221183 175.89367110382477,63.881596790893354,6463.699588225945 175.8395368087281,63.95818923432901,6462.901636968625 175.78543085492413,64.03443939894711,6461.983823318338 175.73136567572828,64.11034109564142,6460.9479512382395 175.67733673361886,64.18588881077416,6459.79585785301 175.62335702248924,64.26107558927394,6458.529444278055 175.56943085018406,64.33589530262212,6457.150642325683 175.5155670949111,64.4103412360987,6455.661436139556 175.4617711384118,64.48440555210661,6454.063877583476 175.40805260203342,64.55808050448209,6452.360064673226 175.35441313822082,64.6313578204317,6450.552155215113 175.30086691589463,64.70422948000048,6448.642348418065 175.24742023822193,64.7766867582891,6446.63290879651 175.19408448649494,64.84871948252909,6444.526192317772 175.1408665380668,64.92031834606271,6442.324582801516 175.08777867756953,64.99147201881937,6440.030579051421 175.03482872856142,65.0621699769138,6437.64671060258 174.98203405783124,65.13239980070757,6435.175626948276 174.92939924358382,65.20214984218448,6432.620009749575 174.87693920640652,65.27140516214047,6429.982722808333 174.8246718073293,65.34015340543527,6427.266597112494 174.7726089278142,65.40837828045244,6424.474681559164 174.72076691963895,65.47606336522793,6421.610104441943 174.66915849315427,65.54319167930205,6418.676090573133 174.61780993627224,65.6097448077132,6415.67600232671 174.56672848291032,65.67570155140568,6412.613409907634 174.5159468374327,65.74104049253023,6409.491982384092 174.46548240197433,65.80573825408075,6406.315571975356 174.41535416251543,65.86976924814883,6403.08823577363 174.36539266078688,65.9333667573529,6399.800582036631 174.3146362965922,65.99773879945496,6396.389727255588 174.26310102529635,66.06286486559264,6392.854018790343 174.21079340026768,66.12872626930255,6389.191797233091 174.15771433331872,66.19530680892747,6385.401349566261 174.10386826943238,66.26259134430929,6381.480979505497 174.04925931998565,66.33056525824985,6377.42903556057 173.99389473596523,66.39921561004479,6373.2438389401295 173.96461757894463,66.43540677152754,6371.000000000001</coordinates>
      </LineString>
    </Placemark>
  </Document>
</kml>
