<kml xmlns="http://www.opengis.net/kml/2.2" xmlns:atom="http://www.w3.org/2005/Atom" xmlns:gx="http://www.google.com/kml/ext/2.2">
  <Document>
    <name>Trajectory s2s3_separation</name>
    <Placemark>
      <name>Trajectory s2s3_separation</name>
      <LineString>
        <coordinates>-10.976508549824985,72.30913393414164,6529.571743001401 -10.976598418238154,72.30919891099558,6529.572261202214 -10.977505490977933,72.30984867689779,6529.577443000696 -10.986583645261248,72.31634607360253,6529.629240020935 -11.077670421015341,72.38129374573627,6530.145113730604 -11.280472194079039,72.5242183778324,6531.26825004473 -11.473944532115127,72.65844330886924,6532.307828226739 -11.653896007502965,72.78146422099138,6533.247663754184 -11.864557910280212,72.9232939806546,6534.315750556638 -12.099362927275308,73.0786532492705,6535.466679143217 -12.355020732044977,73.24462746280705,6536.674159284729 -12.629712986048617,73.41935537326493,6537.920566639001 -12.922346791210202,73.60150325719084,6539.192746724146 -13.232274084881226,73.79005349664044,6540.480299821259 -13.559127674291517,73.9841920621298,6541.774661807251 -13.902737725013424,74.18323723982661,6543.0685293255465 -14.263068824646439,74.38660217372488,6544.355549903134 -14.640193004238142,74.5937647744484,6545.630084171235 -15.034269067850289,74.8042582040058,6546.887113429985 -15.445510980606059,75.01764707229732,6548.122070698113 -15.874187245581311,75.2335294598988,6549.330836419354 -16.320633330557712,75.45152785198574,6550.509670007544 -16.785192809874502,75.67128112141394,6551.6551546928395 -17.268268527060627,75.89244424410465,6552.7641878745235 -17.77028529346717,76.11468944141178,6553.833976962876 -18.291705123454506,76.33769701069164,6554.861985885353 -18.833012574160136,76.56116164729305,6555.845958228241 -19.394730158700895,76.78478927140526,6556.78389262328 -19.977410588522446,77.00829674646604,6557.674032267246 -20.5816329120791,77.23140989186906,6558.514847620359 -21.20800690749263,77.45386482190352,6559.305032277943 -21.85717813806957,77.67540769966871,6560.04349121173 -22.52981828563611,77.89579372145472,6560.729326270588 -23.226631105343643,78.11478589809569,6561.3618217723915 -23.948355060472863,78.33215558216808,6561.9404355560255 -24.69574902056212,78.5476815244401,6562.4647853124725 -25.469602578813237,78.76114781141051,6562.934633312781 -26.27073142486381,78.97234496718589,6563.349879361231 -27.099972135511564,79.18106850649411,6563.71054761977 -27.958174503308896,79.3871182585842,6564.016776098532 -28.846207108292504,79.59029709775216,6564.268806062621 -29.764933203249257,79.79040997892083,6564.4669732376615 -30.715236026672528,79.9872657816733,6564.611701912688 -31.697971721537442,80.18067355696591,6564.703494016478 -32.71398135455132,80.37044242054156,6564.74292419898 -33.76407487218745,80.55638193049717,6564.73063505698 -34.84901798258943,80.73830240487914,6564.66733193073 -35.969529295669645,80.91601505022663,6564.553777564822 -37.1262530628012,81.08933118837828,6564.390787913369 -38.31973415627289,81.2580594486964,6564.179232876293 -39.550422713067405,81.42201151112197,6563.920028692678 -40.81862399217101,81.58099862855211,6563.61413968631 -42.124510497553956,81.7348335505343,6563.262575574584 -43.46805233821226,81.88332981355919,6562.866394565862 -44.84905349518857,82.02630625558972,6562.426694109145 -46.26708032857391,82.16358502059967,6561.9446182399615 -47.72144819489705,82.29499266234019,6561.421361363043 -49.21120006941686,82.42036366343567,6560.858163336139 -50.73511305017189,82.53954321310556,6560.256304154867 -52.29162026124811,82.65238469707822,6559.617127547979 -53.87885888657007,82.75875746266301,6558.942014591668 -55.494586222978455,82.85854218114487,6558.232427949237 -57.13623010298738,82.95163963804085,6557.489877615896 -58.8008641589272,83.0379697971,6556.715946414452 -60.4852241378419,83.11747577520426,6555.912282719149 -62.18569288362988,83.19012387510882,6555.080629773773 -63.89831323058951,83.25590706584806,6554.222827215354 -65.61885237213505,83.31484861738535,6553.340800025819 -67.36927675267503,83.36775031554642,6552.422547729786 -69.16573365972465,83.41489956234862,6551.457909971035 -71.00435313383912,83.45590422837381,6550.446730001538 -72.88049198427325,83.4904007378534,6549.389118283873 -74.78883792717755,83.51806419901713,6548.285442816531 -76.72335506816478,83.53861592335603,6547.136394067978 -78.67727659949162,83.55183220118856,6545.94306829945 -80.64314817578918,83.5575545922965,6544.707024883993 -82.61283813195217,83.55570027728308,6543.430399463295 -84.57762940204395,83.54627319842517,6542.115978226271 -86.52825611193322,83.5293753368778,6540.767340542903 -88.45505357723363,83.50521721859688,6539.388932227927 -90.348090038029,83.47412689458405,6537.986163059968 -92.19723896460579,83.43655864486098,6536.565555010697 -93.99230145233525,83.39309952146894,6535.134848303325 -95.72305032990369,83.34447526039621,6533.703148655874 -97.37903879524578,83.29156260817345,6532.281273909301 -98.94911368313808,83.23541453580918,6530.88236607047 -100.4204669553036,83.17731288694975,6529.523026165207 -101.77600195748414,83.11890780734535,6528.22615076021 -102.79143381316464,83.07198265997106,6527.224832853405 -103.79362720193978,83.02291524244252,6526.21004926912 -104.82932593244959,82.96924206174471,6525.132163911177 -105.98900768207398,82.90544402955778,6523.8880456194265 -107.229838078325,82.8326854690644,6522.510614438427 -108.52551682363179,82.75153405229311,6521.017761536556 -109.85772411000059,82.6623169396532,6519.420463272909 -111.21258835621163,82.56526609948892,6517.726169626392 -112.57916045226438,82.4605720906204,6515.940195071217 -113.9485305515609,82.34841546326285,6514.06655807997 -115.3134566036409,82.22896950736327,6512.108248089952 -116.66796638710053,82.1024119832981,6510.067596992236 -118.00713588692594,81.96892811317142,6507.946465480615 -119.32694487967666,81.82870726619781,6505.746305172774 -120.62415717989464,81.6819423227417,6503.468247154079 -121.89619218329295,81.5288291129089,6501.113175696046 -123.14104876100947,81.36956349315308,6498.68175261852 -124.35720011222361,81.20434201573845,6496.174486055031 -125.54354236387508,81.03336013798575,6493.591751754754 -126.69935038390685,80.85680787655683,6490.93376840934 -127.82417015957441,80.67487573811839,6488.2007209406975 -128.91782808344223,80.4877458873671,6485.392655355453 -129.98035673011782,80.29559812428691,6482.509591441555 -131.01197233910375,80.09860418217235,6479.551455520275 -132.0130457586781,79.89693053349752,6476.518137154745 -132.98404511367497,79.6907385526279,6473.409503144998 -133.92556573023492,79.4801809419492,6470.225352498582 -134.8382519964234,79.2654070364817,6466.965503113111 -135.72282496419044,79.04655630567086,6463.629698173103 -136.58003246458358,78.82376474365648,6460.217706277272 -137.41066932708912,78.59715994966844,6456.729248474987 -138.21553904527772,78.36686525683054,6453.164062344128 -138.99546444410217,78.13299552929614,6449.521837153007 -139.75126070570033,77.89566317424614,6445.802306465696 -140.48375234876946,77.65497263023504,6442.005161317121 -141.19375053304745,77.41102334264757,6438.1300947062155 -141.88205329420168,77.16391004149021,6434.176804208813 -142.5494423712115,76.91372303851777,6430.144994747208 -143.19669199690918,76.66054732531325,6426.0343617437375 -143.82454420625996,76.40446343514947,6421.844602320508 -144.43372773989702,76.14554790176744,6417.575420242873 -145.0249477639583,75.88387394100785,6413.226534765746 -145.5988809764633,75.61950977914984,6408.797650308718 -146.1561918424506,75.35252075687146,6404.288488683094 -146.69751242361906,75.08296921860722,6399.698785075141 -147.22345717466226,74.8109135580129,6395.028269330455 -147.7346155770493,74.53641017731456,6390.276697012266 -148.2315474983729,74.25951186040615,6385.443819237644 -148.71479736872521,73.9802696056304,6380.529412209821 -149.18489432277448,73.69873052420253,6375.533238215977 -149.5941889445334,73.44527997448483,6371.0</coordinates>
      </LineString>
    </Placemark>
  </Document>
</kml>
