<kml xmlns="http://www.opengis.net/kml/2.2" xmlns:atom="http://www.w3.org/2005/Atom" xmlns:gx="http://www.google.com/kml/ext/2.2">
  <Document>
    <name>Trajectory drag_s2s3_separation</name>
    <Placemark>
      <name>Separation Point drag_s2s3_separation</name>
      <Point>
        <coordinates>-10.976508427736064,72.30913396976553,6529.571743001402</coordinates>
      </Point>
      <Style>
        <IconStyle>
          <Icon>
            <href>http://maps.google.com/mapfiles/kml/shapes/placemark_square.png</href>
          </Icon>
        </IconStyle>
      </Style>
    </Placemark>
    <Placemark>
      <name>Trajectory drag_s2s3_separation</name>
      <LineString>
        <coordinates>-10.976508427736064,72.30913396976553,6529.571743001402 -10.977291656939599,72.30969300737098,6529.576201303692 -10.985097107223964,72.31528318931682,6529.620768807761 -11.063422117842663,72.37116555197599,6530.0648919416135 -11.871609230311662,72.92800100901493,6534.350911216034 -14.0223207476904,74.25132671452593,6543.503362503858 -17.457321249648828,75.97702896984971,6553.176577205337 -22.41153332372329,77.85769356505591,6560.614141156926 -29.4513667003219,79.7232249852602,6564.4058734764 -39.41653571996858,81.40464999966801,6563.9497951388175 -53.18028555447387,82.71299100143449,6559.241512546212 -70.61602617760002,83.44784575175464,6550.661833805137 -89.19687147958905,83.49391329294106,6538.844557508809 -104.45524722276963,82.98898473516446,6525.524269476318 -117.05598387207817,82.06461838302437,6509.4631308050175 -125.38540005495958,81.05674181237288,6493.943232332214 -129.48721302055617,80.38609798075784,6483.866259598955 -132.1505375759647,79.86839295374364,6476.086630694979 -134.29313316888795,79.39500348252784,6468.931354445144 -135.6969246228983,79.05314891838283,6463.72595157798 -136.85146185785547,78.75096296575504,6459.09112342299 -137.3210435489444,78.62220852482761,6457.105426719014 -137.78092923135,78.49266391495047,6455.100272156989 -138.52984893408615,78.27408177277343,6451.69877339063 -139.29278774600448,78.04120995606198,6448.046226197149 -139.94539424310904,77.83340396950712,6444.756932778954 -140.24370194878358,77.73566140173278,6443.198204672562 -140.53789397195712,77.63752922994439,6441.624604692161 -140.81306880525375,77.54414685163334,6440.1181186078875 -141.328308797854,77.36507306335508,6437.200208227686 -141.74113808234384,77.21753966581586,6434.761385381851 -142.14677022827158,77.0690150044702,6432.265988680788 -142.5090720537177,76.93335252713156,6429.942527377192 -142.83185580943152,76.8101156642166,6427.786227641012 -143.12193374211168,76.69749193784561,6425.768736106891 -143.38476168187103,76.5939623004919,6423.866007639075 -143.47413065120932,76.5584481047512,6423.200980328444 -143.56337573165112,76.52283033165564,6422.526988254073 -143.60417662928225,76.50649689113564,6422.215429280616 -143.64495951179424,76.49013987093213,6421.901785523548 -143.83624791844616,76.4130206727094,6420.399230674367 -144.01846298594356,76.33898548811332,6418.91509941683 -144.07768057936167,76.31481471912639,6418.420539776498 -144.10615297524953,76.3031742375981,6418.180454402176 -144.13188953177567,76.29264305488941,6417.962139473003 -144.2724211457328,76.23498267796133,6416.746836259207 -144.40676758791926,76.1796457424402,6415.545101391041 -144.53060957771226,76.12848890618064,6414.398409987793 -144.64490213166573,76.0811884687084,6413.302871969333 -144.75068044181788,76.03737238342387,6412.25324808233 -144.84884433211232,75.99671049028017,6411.244914033126 -144.94016916661195,75.95891128200665,6410.273831053915 -145.0253343452879,75.92371577009224,6409.336441932567 -145.10493987859547,75.89089231783106,6408.429579009025 -145.17951993156666,75.86023235757862,6407.550383818032 -145.2495415726724,75.83154677002128,6406.69623412009 -145.31543531086953,75.80466273887231,6405.864674092062 -145.37759113144102,75.7794209054193,6405.053342712106 -145.43637498805964,75.75567260461047,6404.2598925888415 -145.49212048570826,75.73327694326976,6403.4818885956975 -145.5086612840334,75.72665831656572,6403.245974762296 -145.5217210749186,75.72144017555382,6403.057948293278 -145.53487647234914,75.71619372330353,6402.867047906354 -145.5875341167669,75.69527755079636,6402.086600611655 -145.64105132732365,75.67417266235456,6401.265326735598 -145.69386916846517,75.65350979450902,6400.424984136435 -145.74723750568077,75.63281292449373,6399.543494220936 -145.80546334765907,75.61045810731741,6398.541758615446 -145.84410807296754,75.59576284735607,6397.852343481697 -145.87975617663065,75.58230971785032,6397.197797803624 -145.91124088799003,75.57051666469509,6396.604330225354 -145.9398737570988,75.55986526150262,6396.051509197058 -145.96612096465498,75.55016294901485,6395.533287999022 -145.99039070591567,75.5412489081757,6395.044229174985 -146.01295885980537,75.53300634401114,6394.580477326722 -146.03405952728238,75.52534454122792,6394.139049082565 -146.0560165230375,75.5174148573996,6393.671271693638 -146.07453088130205,75.5107642892571,6393.270082933189 -146.09379189611423,75.50388050739765,6392.846019772084 -146.11208459321065,75.49737653127396,6392.43687415407 -146.12931643322926,75.49127988353489,6392.045658602989 -146.145589035423,75.48554862836883,6391.67092742428 -146.16099496553963,75.48014500847408,6391.311297493229 -146.16739550906786,75.47790808512758,6391.160596751579 -146.17086216457827,75.47669805295018,6391.078627055105 -146.17435905446948,75.47547718425685,6390.995601174639 -146.17799600924437,75.47420980520423,6390.909068732248 -146.19137016852235,75.4695612763604,6390.588665004515 -146.20455107639143,75.464996265765,6390.2693571035625 -146.2171774692906,75.46063799455983,6389.960149718844 -146.22927899431753,75.45647529905706,6389.660800908655 -146.2408921889279,75.45249343171936,6389.3707522944205 -146.25205036429494,75.44867903009688,6389.089483192816 -146.2627835356275,75.44502010319219,6388.816518243525 -146.27312301678225,75.4415058544596,6388.55142210097 -146.2830892504458,75.43812652823674,6388.29379459922 -146.29271300435738,75.43487328084703,6388.043266705142 -146.30200638734473,75.43173807025163,6387.79949700451 -146.31098813936566,75.42871356284162,6387.5621687585035 -146.31968382116116,75.42579305369274,6387.330987388827 -146.32810508747272,75.42297039784458,6387.10567830608 -146.33627072048336,75.4202399504089,6386.885984985059 -146.34418586431804,75.41759651437565,6386.671667278123 -146.3518713772277,75.41503529626199,6386.462500027058 -146.3593346841983,75.41255186507355,6386.258271670378 -146.36658656755387,75.41014211926591,6386.058783254908 -146.37364124772375,75.40780225372619,6385.863847241332 -146.3805039100835,75.40552873407114,6385.673286732058 -146.38718747769727,75.40331827180583,6385.486934608977 -146.39370013005203,75.4011678025182,6385.30463278855 -146.4000453490297,75.3990744668894,6385.126231589762 -146.4062344959674,75.39703559317866,6384.951589117402 -146.41227013791323,75.39504868148376,6384.780570704956 -146.41816279268963,75.39311139026631,6384.613048462545 -146.42391424820156,75.39122152352651,6384.448900811399 -146.42953848206662,75.38937701903552,6384.288012037224 -146.4350324389679,75.38757593853506,6384.130271962766 -146.44040530096285,75.38581645820369,6383.9755755828955 -146.44565761876868,75.38409685996899,6383.823822733792 -146.45080222081293,75.38241552398515,6383.674917816327 -146.45583498448892,75.38077092151322,6383.528769524997 -146.46076410020012,75.37916160805061,6383.385290556026 -146.4655933709784,75.37758621837851,6383.244397462641 -146.47032222915186,75.37604346016491,6383.1060103520285 -146.47496245932996,75.3745321096268,6382.97005273869 -146.47950896478702,75.37305100651668,6382.83645132226 -146.4839690232886,75.37159905039721,6382.705135852081 -146.48834976317295,75.37017519662614,6382.576038954138 -146.49264146109348,75.36877845248408,6382.44909595481 -146.49685932961924,75.36740787443343,6382.324244783316 -146.50100174637677,75.36606256438073,6382.201425782916 -146.50507114917562,75.36474166769678,6382.080581660223 -146.50692805642205,75.36413789900624,6382.025262836241 -146.5076198438922,75.3639143572031,6382.00476845646 -146.50825664373525,75.36370734915526,6381.985783717066 -146.51210825943605,75.3624569540307,6381.870984948839 -146.51603342868484,75.36118454677164,6381.753949665677 -146.51990621756062,75.35992830504046,6381.63819386155 -146.52372771649658,75.35868919023552,6381.523820038408 -146.52750330119608,75.35746677419871,6381.410802128929 -146.53122592500534,75.35626059515376,6381.299110118688 -146.53490103256462,75.35507020780973,6381.188714710626 -146.53852984403431,75.3538951842986,6381.079587467387 -146.54211353388618,75.3527351137788,6380.971700823934 -146.54565323416062,75.35158960122456,6380.865028021731 -146.5491500365971,75.35045826659237,6380.759543074524 -146.55260081498133,75.34934074454866,6380.655220784101 -146.55601494120475,75.34823668313985,6380.552036651313 -146.5593892168984,75.34714574363454,6380.4499669004135 -146.5627245880377,75.34606759968231,6380.348988430614 -146.56601779056695,75.34500193663507,6380.249078784468 -146.56927806338408,75.34394845124514,6380.150216145518 -146.57250208160067,75.3429068510102,6380.0523793075845 -146.57568649190733,75.34187685373347,6379.955547656441 -146.578840448563,75.34085818688752,6379.85970113139 -146.58195636709775,75.33985058745287,6379.764820236547 -146.58504335071925,75.33885380129189,6379.670885997047 -146.588093766471,75.33786758282208,6379.577879952703 -146.59111667078588,75.33689169467446,6379.485784138373 -146.5941043859211,75.33592590728512,6379.394581067558 -146.5970617471002,75.33496999866689,6379.3042537218735 -146.59999356955353,75.33402375394704,6379.2147855241365 -146.60289211471735,75.33308696517994,6379.126160336467 -146.60576215979032,75.33215943096678,6379.038362433264 -146.60860846386706,75.33124095629476,6378.951376500156 -146.61142323458375,75.33033135221343,6378.865187616778 -146.6142111974256,75.32943043554197,6378.779781235735 -146.6169770615552,75.32853802881385,6378.695143189427 -146.61971298696795,75.3276539597947,6378.61125965579 -146.62242365278354,75.32677806152381,6378.528117167091 -146.62510954600222,75.32591017193731,6378.445702585206 -146.62777531797593,75.32505013374718,6378.364003096617 -146.63041307270112,75.32419779421721,6378.283006201204 -146.63302743522135,75.32335300517475,6378.202699716282 -146.63561884046547,75.32251562261322,6378.123071748042 -146.63818771176545,75.32168550653418,6378.044110681991 -146.64073863865892,75.32086252102164,6377.965805195142 -146.6432636658781,75.32004653379913,6377.888144222016 -146.64576736125323,75.3192374164084,6377.811116972725 -146.64825010495437,75.31843504368658,6377.734712890741 -146.65071226664125,75.31763929405524,6377.65892168428 -146.65315420617057,75.31685004927992,6377.583733307705 -146.65557627469536,75.3160671941036,6377.5091379306605 -146.65798299208245,75.31529061645162,6377.4351259607165 -146.66036633553273,75.31452020711325,6377.361688019323 -146.66273080801295,75.31375585975502,6377.28881494242 -146.66507672619056,75.3129974708251,6377.216497777212 -146.66740439912263,75.31224493934945,6377.14472776509 -146.66971412803676,75.31149816699518,6377.073496350494 -146.6720062068018,75.31075705791109,6377.002795168404 -146.67428092223952,75.3100215186203,6376.932616036643 -146.6765385544302,75.30929145791514,6376.862950948217 -146.6787793765419,75.30856678690644,6376.793792078295 -146.68100783342558,75.30784741885265,6376.7251317693535 -146.6832158293403,75.30713326913532,6376.656962533558 -146.68540779679626,75.30642425514384,6376.589277039612 -146.68758398432078,75.30572029623839,6376.522068113718 -146.68974463465415,75.30502131370937,6376.455328736725 -146.69188998500024,75.30432723069228,6376.389052037616 -146.69402026720473,75.30363797210633,6376.323231289158 -146.6961357078811,75.30295346461011,6376.257859905111 -146.69823652859978,75.3022736365371,6376.192931435413 -146.70032294599628,75.3015984178575,6376.128439563831 -146.70239517162452,75.30092774022289,6376.064378113432 -146.70445341289272,75.30026153666057,6376.000741018528 -146.7064978723429,75.29959974180409,6375.937522347803 -146.70852874829907,75.29894229168121,6375.874716285063 -146.71054623482812,75.29828912372417,6375.812317131191 -146.71255052173,75.29764017677084,6375.750319305184 -146.71454179479593,75.2969953909791,6375.688717336836 -146.71652023590266,75.29635470779453,6375.627505864475 -146.71848602334703,75.29571806984023,6375.566679625217 -146.7204393314207,75.29508542105306,6375.506233468711 -146.72238033091625,75.2944567065181,6375.44616234203 -146.72431336722875,75.2938318724615,6375.386461288962 -146.72623024815687,75.29321086620519,6375.327125449019 -146.7281353122329,75.29259363622126,6375.268150059169 -146.7300287168632,75.29198013197694,6375.209530442278 -146.73191061626676,75.29137030398059,6375.1512620113635 -146.73378116153438,75.29076410376132,6375.0933402681585 -146.73564050077914,75.29016148381959,6375.035760798851 -146.73748877924848,75.28956239758976,6374.978519270961 -146.73932613938285,75.28896679942036,6374.921611431891 -146.74115272074346,75.28837464459676,6374.865033111483 -146.7429686603379,75.28778588923484,6374.808780212253 -146.74477409251955,75.28720049031307,6374.7528487128 -146.7465691489832,75.28661840567321,6374.697234668237 -146.7483539590737,75.28603959391971,6374.641934200892 -146.75012864958077,75.28546401448573,6374.586943506928 -146.75189334502988,75.28489162753826,6374.532258847566 -146.75364816758133,75.28432239401053,6374.477876552457 -146.75539323711806,75.28375627557303,6374.423793017182 -146.75712867141422,75.2831932345784,6374.370004698228 -146.75885458595675,75.28263323411912,6374.316508118732 -146.76057109428965,75.2820762379153,6374.263299857995 -146.76227830772658,75.28152221040779,6374.210376560576 -146.76397633571347,75.2809711166402,6374.1577349252275 -146.7656652857011,75.28042292229998,6374.1053717090035 -146.76734526337714,75.27987759364287,6374.053283720228 -146.7690163723089,75.27933509760878,6374.0014678297275 -146.7706787144272,75.27879540166435,6373.949920955964 -146.772332389879,75.27825847385083,6373.8986400697395 -146.77397749707998,75.27772428276661,6373.8476221926985 -146.7756141327304,75.27719279756225,6373.79686439697 -146.7772423917259,75.27666398796904,6373.746363808032 -146.7788623674816,75.2761378241939,6373.69611759479 -146.78047415198282,75.27561427690256,6373.646122968105 -146.78207783547558,75.27509331732024,6373.596377190492 -146.78367350672744,75.27457491714671,6373.546877568136 -146.78526125297924,75.27405904857203,6373.497621452473 -146.7868411601704,75.27354568420317,6373.448606233298 -146.7884133125637,75.27303479718601,6373.399829350481 -146.78997779342458,75.27252636098456,6373.351288272989 -146.79153468426833,75.27202034962552,6373.302980522302 -146.79308406559664,75.27151673745898,6373.254903649647 -146.7946260163986,75.2710154993205,6373.207055251539 -146.79616061458879,75.27051661038885,6373.159432956273 -146.79768793670607,75.27002004628383,6373.112034433318 -146.79920805807566,75.2695257830136,6373.064857388356 -146.8007210529096,75.2690337969421,6373.0178995602255 -146.80222699412806,75.26854406484713,6372.971158726519 -146.8037259537406,75.26805656379646,6372.924632691804 -146.80521800227274,75.26757127133425,6372.878319305476 -146.8067032095578,75.26708816522361,6372.832216437226 -146.80818164421302,75.26660722361711,6372.7863219933515 -146.80965337366624,75.26612842504801,6372.74063391597 -146.8111184643881,75.26565174835488,6372.695150175851 -146.8125769819115,75.2651771726753,6372.649868771872 -146.81402899078302,75.26470467746164,6372.6047877325345 -146.8154745545721,75.26423424247824,6372.559905115744 -146.81691373585025,75.26376584780822,6372.515219009479 -146.81834659620188,75.26329947384988,6372.470727531487 -146.8197731965401,75.2628351012142,6372.426428819518 -146.8211935967179,75.26237271085122,6372.38232104343 -146.82260785562667,75.26191228401828,6372.338402402155 -146.8240160313901,75.26145380221679,6372.294671117709 -146.82541818132486,75.26099724720517,6372.251125436444 -146.82681436192004,75.26054260100553,6372.207763629703 -146.8282046288245,75.26008984590801,6372.164583994251 -146.8295890369523,75.25963896443639,6372.121584849016 -146.83096764032976,75.25918993939803,6372.078764539868 -146.8323404922703,75.2587427538269,6372.036121434207 -146.83370764539097,75.25829739097844,6371.993653920475 -146.83506915154686,75.25785383435084,6371.951360410205 -146.83642506179683,75.25741206769635,6371.909239339121 -146.83777542655795,75.256972074971,6371.867289162344 -146.83912029547935,75.25653384037587,6371.825508358341 -146.8404597178135,75.25609734823601,6371.783895417397 -146.84179374175878,75.25566258321486,6371.742448862063 -146.8431224149385,75.25522953015823,6371.7011672322915 -146.844445784558,75.25479817404316,6371.6600490805695 -146.84576389689553,75.25436850014385,6371.6190929877475 -146.84707679787465,75.25394049384523,6371.578297545273 -146.84838453276342,75.2535141407411,6371.537661364549 -146.8496871458892,75.2530894267271,6371.497183085817 -146.85098468136303,75.2526663377647,6371.456861355643 -146.85227718278063,75.25224485997867,6371.416694836238 -146.85356469262715,75.25182497985135,6371.376682223961 -146.85484725354857,75.25140668380801,6371.336822209818 -146.85612490706018,75.25098995863817,6371.297113519615 -146.85739769437453,75.25057479122563,6371.257554888229 -146.85866565618437,75.25016116861933,6371.218145066372 -146.85992883270475,75.24974907801969,6371.178882819294 -146.8611872636981,75.24933850677047,6371.139766925998 -146.86244098809658,75.24892944248201,6371.100796191005 -146.86369004459942,75.24852187283652,6371.061969425785 -146.86493447116823,75.24811578575273,6371.023285464456 -146.86568352537876,75.24787133731544,6370.999999998706</coordinates>
      </LineString>
    </Placemark>
    <Placemark>
      <name>Impact Point drag_s2s3_separation</name>
      <Point>
        <coordinates>-146.86568352537876,75.24787133731544,6370.999999998706</coordinates>
      </Point>
      <Style>
        <IconStyle>
          <Icon>
            <href>http://maps.google.com/mapfiles/kml/shapes/placemark_circle.png</href>
          </Icon>
        </IconStyle>
      </Style>
    </Placemark>
    <Placemark>
      <name>Impact Area</name>
      <Style>
        <LineStyle>
          <color>ff0000ff</color>
          <width>2</width>
        </LineStyle>
        <PolygonStyle>
          <color>7f0000ff</color>
          <outline>false</outline>
        </PolygonStyle>
      </Style>
      <Polygon>
        <outerBoundaryIs>
          <LinearRing>
            <coordinates>-142.45780208702027,75.24787133731544,0 -142.5247677105247,75.44277640774885,0 -142.72362986445413,75.63175938624386,0 -143.04834622289042,75.8090781206289,0 -143.48905044359697,75.9693448708873,0 -144.03235195183464,76.10769001291133,0 -144.66174280619953,76.21990999956664,0 -145.35809928406883,76.30259508334474,0 -146.10026294623592,76.3532329198157,0 -146.86568352537876,76.37028490394235,0 -147.6311041045216,76.3532329198157,0 -148.37326776668868,76.30259508334474,0 -149.06962424455799,76.21990999956664,0 -149.69901509892287,76.10769001291133,0 -150.24231660716055,75.9693448708873,0 -150.6830208278671,75.8090781206289,0 -151.0077371863034,75.63175938624386,0 -151.2065993402328,75.44277640774885,0 -151.27356496373724,75.24787133731544,0 -151.2065993402328,75.05296626688204,0 -151.0077371863034,74.86398328838703,0 -150.6830208278671,74.686664554002,0 -150.24231660716055,74.52639780374359,0 -149.69901509892287,74.38805266171956,0 -149.06962424455799,74.27583267506425,0 -148.37326776668868,74.19314759128615,0 -147.6311041045216,74.1425097548152,0 -146.86568352537876,74.12545777068854,0 -146.10026294623592,74.1425097548152,0 -145.35809928406883,74.19314759128615,0 -144.66174280619953,74.27583267506425,0 -144.03235195183464,74.38805266171956,0 -143.48905044359697,74.52639780374359,0 -143.04834622289042,74.686664554002,0 -142.72362986445413,74.86398328838703,0 -142.5247677105247,75.05296626688204,0</coordinates>
          </LinearRing>
        </outerBoundaryIs>
      </Polygon>
    </Placemark>
  </Document>
</kml>
