<?xml version='1.0' encoding='UTF-8'?>
<kml xmlns="http://www.opengis.net/kml/2.2" xmlns:atom="http://www.w3.org/2005/Atom" xmlns:gx="http://www.google.com/kml/ext/2.2">
  <Document>
    <name>Trajectory drag_s2fairing_separation</name>
    <Style id="19050">
      <LineStyle>
        <color>ff0000ff</color>
        <width>5</width>
      </LineStyle>
    </Style>
    <Placemark>
      <name>Separation Point drag_s2fairing_separation</name>
      <Point>
        <altitudeMode>relativeToGround</altitudeMode>
        <coordinates>-2.3077729435649985,63.18654655549415,110443.57993978135</coordinates>
      </Point>
      <Style>
        <IconStyle>
          <Icon>
            <href>http://maps.google.com/mapfiles/kml/shapes/placemark_square.png</href>
          </Icon>
        </IconStyle>
      </Style>
    </Placemark>
    <Placemark>
      <name>Trajectory drag_s2fairing_separation</name>
      <LineString>
        <extrude>1</extrude>
        <altitudeMode>relativeToGround</altitudeMode>
        <coordinates>-2.3077729435649985,63.18654655549415,110443.57993978135 -2.3082002886257555,63.18717386891657,110456.34886126977 -2.3118535688781208,63.19255414776134,110565.64217018528 -2.348453949713388,63.246344393207515,111636.45988786512 -2.42638980475445,63.36035252418002,113774.48081053377 -2.514488141733949,63.488368636791094,115961.6373919345 -2.6176935963144956,63.63719336247385,118219.54636256897 -2.6681245594017184,63.70946756137972,119205.36580410965 -2.6932165576378964,63.7453208945079,119667.50790923463 -2.7045453064838227,63.76148170680081,119869.9811841496 -2.710200213822475,63.76954897763324,119969.69573904773 -2.7116070450244933,63.77155007032471,119994.29005539602 -2.711933325753108,63.772016104691055,120000.009837147 -2.7122596141934423,63.772482137859676,120005.72658661379 -2.712582790553114,63.7729422815209,120011.36812983759 -2.714685531513908,63.775940735535904,120048.05831643983 -2.7334252450351073,63.802619986932555,120369.0139167955 -2.890751627432252,64.02506800843685,122659.52733451226 -3.0660582973815167,64.26967060163015,124381.4611004745 -3.274889853202666,64.55663991823926,125334.66294455281 -3.537953318644554,64.91144255000968,124916.54365872628 -3.766092343926573,65.21323434178548,123169.34701652911 -3.960775596328915,65.46651796936172,120715.32356393014 -4.00399503688854,65.52222310805645,120054.73137107503 -4.006715071539901,65.52571862279166,120011.82631844921 -4.0073223792788895,65.52650152811526,120002.19317909621 -4.007929716835889,65.52728443439753,119992.55142313588 -4.008495581527654,65.52801255671636,119983.57662758666 -4.012109547352907,65.53265904553024,119926.12897227552 -4.04577139418933,65.57588654626669,119377.15355129352 -4.18894147976664,65.75847586081512,116769.06082651958 -4.308592595140453,65.90950382807306,114258.5976087274 -4.4106163432649055,66.03717078428696,111887.35696172646 -4.46370535369428,66.10320266746432,110571.45895305145 -4.476081370839864,66.11855389240608,110256.80600457672 -4.4815482239114885,66.1253329428951,110116.80828656466 -4.4842273582152075,66.12865199969941,110048.03059719448 -4.485695211363492,66.13047047132403,110010.28286761143 -4.486037371405189,66.13089749889066,110001.4119563982 -4.4863471042902745,66.13128002225766,109993.46339603093 -4.486626188757697,66.13162742669161,109986.24281063095 -4.488104127893138,66.13345476151586,109948.23503584569 -4.5007457971535985,66.14910726117093,109620.75899308274 -4.607915768831049,66.28118769569078,106721.22721717124 -4.711465846853542,66.40776206523489,103714.32773783137 -4.815591943890439,66.53400967028259,100493.06332085415 -4.826238115155661,66.5468629948917,100152.67832328386 -4.830209104212798,66.55165337163243,100025.23132614224 -4.830682313650954,66.55222076589773,100010.11480550557 -4.830926369955108,66.55251578951128,100002.2530179943 -4.830977976738012,66.55258158883937,100000.49943287564 -4.830993288088024,66.55259852638511,100000.04802914645 -4.831008599454634,66.55261546393221,99999.59662139656 -4.8310243710966745,66.55263310169039,99999.1265478608 -4.831154727768393,66.5527932796892,99994.85735805679 -4.832026953562519,66.55384685110725,99966.76786557287 -4.838748596192602,66.56194621420082,99750.31422595143 -4.9061324545843945,66.64295719221793,97535.20748945023 -4.986333169951621,66.73881534277318,94796.55801305656 -5.062887691105516,66.8297573312853,92080.70934774105 -5.087889214311019,66.85933927106626,91172.61984007571 -5.091537088065024,66.8636510052999,91039.25004835842 -5.092078531898977,66.8642925325859,91019.38446879204 -5.092378190659019,66.86464378673207,91008.50509688408 -5.092532168145709,66.86482865408301,91002.77852689108 -5.092590672893095,66.86489678759293,91000.66786036416 -5.0926070640354055,66.86491488867395,91000.10710724653 -5.0926192771192405,66.86493298974844,90999.54634957196 -5.092635429852976,66.86495073742834,90998.99653562684 -5.092741366376316,66.86507678382479,90995.09155763911 -5.093720159385953,66.86623015455123,90959.34937511536 -5.101452980749087,66.87536435368732,90675.63697587085 -5.1622814020180385,66.94701993690225,88409.96564594621 -5.221374987372371,67.01629798972493,86152.00234802005 -5.224158678047104,67.01955151650061,86044.3305525358 -5.2250256212921045,67.02056296547148,86010.82798767847 -5.225225870933002,67.0208008670043,86002.94584142709 -5.225274546725842,67.02085373014016,86001.19427569353 -5.225296605734059,67.02087988392995,86000.32768232332 -5.2253025635816925,67.02088859824268,86000.03893553714 -5.225303660491534,67.02089020264947,85999.98577376439 -5.225304757401517,67.02089180705626,85999.93261196058 -5.225305838067584,67.0208933877035,85999.88023738703 -5.225320822813671,67.02090919418274,85999.35648979012 -5.22540302285617,67.02100497998467,85996.18255345004 -5.2257785170453985,67.02144418817788,85981.62742811964 -5.2292972880753155,67.02555726625889,85845.19285314991 -5.259192996380449,67.06046157074412,84677.97557258129 -5.322789919538479,67.13442651775175,82148.89722163072 -5.385212695184862,67.20665130567518,79606.26953522336 -5.447078882656228,67.27785589042423,77028.72208463764 -5.510398475278919,67.35033066445644,74332.64025658455 -5.524530314181732,67.36645119571402,73722.94978916364 -5.538665945091651,67.38255464161315,73110.25496945453 -5.555312283396461,67.40148641118043,72385.2710274958 -5.563219329577436,67.41047024637639,72039.46539415338 -5.565057935706591,67.41255665376461,71958.99179150396 -5.566896538112047,67.41464267826267,71878.47123662231 -5.567808439031609,67.41567803939908,71838.48336697921 -5.568264610448438,67.41619895102292,71818.35888953526 -5.568513098144535,67.41647938184298,71807.52335804093 -5.56864713684962,67.41663344243725,71801.57015472912 -5.568722076678625,67.41671576284644,71798.38899490357 -5.568792838412946,67.41679808263643,71795.20776252804 -5.5690403467777685,67.4170771143746,71784.42391983695 -5.5700764750082215,67.41825242641566,71738.98906768527 -5.57986994585886,67.42936231178322,71308.53686473196 -5.633898638034083,67.49044819139412,68910.25253444193 -5.67629691125191,67.5381279139831,67000.82279283874 -5.714319884777808,67.58068353170229,65268.328948472445 -5.752151528522887,67.62281556939658,63526.24969784183 -5.7824043036940225,67.6563446828196,62120.34748216646 -5.812438287913068,67.68947329063289,60713.76375941275 -5.843446035848103,67.72349509007272,59250.6163660987 -5.878845862320247,67.76208232994773,57567.36069551044 -5.922783175833416,67.80954987265221,55460.14165451324 -5.955461456802112,67.84450386444571,53880.83569626272 -5.987340966387961,67.87826551967278,52331.35144168673 -5.99317785491354,67.88440702936103,52046.792389600014 -5.9989868009667475,67.89050163212355,51763.55261966419 -6.004372019355685,67.8961431903978,51500.59639717287 -6.00544308609733,67.89726645979451,51448.15056418192 -6.005712467850572,67.89754661726536,51435.065247173596 -6.005977598754157,67.89782666913271,51421.982996145474 -6.006154392890693,67.8980096461301,51413.43446053738 -6.00618743844268,67.89804310614015,51411.8711500585 -6.006195122087689,67.89805351928395,51411.38462402018 -6.006206407004271,67.89806315071804,51410.9346193055 -6.006242486788295,67.89810072264785,51409.17914288683 -6.00649877221349,67.89836877337802,51396.65400984977 -6.007293048618891,67.89920167233909,51357.72442808503 -6.014010806961039,67.90621353207221,51029.32942013413 -6.039206330547216,67.93233757512765,49795.032694018584 -6.064192584802157,67.95793874115505,48567.75451126166 -6.087925875147931,67.9819312624392,47400.04971676871 -6.088305049452259,67.9823120422172,47381.37029417868 -6.088683991129301,67.9826924961849,47362.7020864233 -6.088825047092996,67.98283164720974,47355.872998231156 -6.088898637076852,67.98290815044913,47352.118190785186 -6.088946765299795,67.98295602583664,47349.768350823426 -6.088994889827092,67.98300389604917,47347.41868916988 -6.089041260253936,67.98304940674596,47345.1847718449 -6.089154539491943,67.98316243244263,47339.63654774109 -6.089479357236826,67.98348692064457,47323.70566937102 -6.090237175364848,67.98424764837273,47286.343757065246 -6.094092307335785,67.98810559916883,47096.56908186315 -6.116680436037598,68.01050862995412,45984.252125272345 -6.138335943457292,68.03161813025494,44918.58164090698 -6.1616523548814826,68.05388048820927,43773.4986392065 -6.179985071405611,68.07099355554912,42876.145212412775 -6.197468292183146,68.08694860112857,42023.89686889625 -6.214487347239611,68.10209655062731,41198.536351152085 -6.231503023743187,68.11681432652236,40378.81739833633 -6.249598447137885,68.13194241029584,39514.36954295005 -6.267060511802214,68.14597260507043,38688.506867490774 -6.281251679131685,68.15692107386361,38024.28392187787 -6.29472092809462,68.16690385491653,37400.26167313976 -6.306677504061071,68.17540826050774,36852.02266474883 -6.317613007933886,68.18287742783197,36355.4449270042 -6.327807705623201,68.1895621402191,35896.86055805858 -6.337371758856506,68.19558161095551,35470.43896098977 -6.346307650751044,68.20097874513621,35075.390803062364 -6.35455090439774,68.20575753207079,34713.92774674875 -6.362958542094532,68.21043173758142,34348.06219051442 -6.37217476313586,68.21532194129654,33950.07825431584 -6.382154292291972,68.22033527904398,33522.953306616626 -6.392985869734218,68.22545100329148,33063.01187145773 -6.404954462386939,68.2307032572087,32559.523005973384 -6.407756286091399,68.23187274194889,32442.30997349653 -6.410529295370338,68.2330097128084,32326.351129071263 -6.414399353982958,68.2345567495059,32165.18606794434 -6.414459287291038,68.23458064453571,32162.66474185588 -6.414478691832954,68.23458968823289,32161.710218541826 -6.414489832725195,68.2345933539113,32161.323281710702 -6.414500786905535,68.23459677381233,32160.962267172137 -6.414532079761642,68.23461046703848,32159.516563042176 -6.414650988826679,68.2346569964663,32154.601617201395 -6.414961301613431,68.23477948517389,32141.644775982462 -6.415948619040137,68.23516616223161,32100.566898117315 -6.420682718151937,68.23698139515653,31904.02097147908 -6.4353803707253405,68.24222033753074,31297.256032062232 -6.448794494618284,68.24649520496472,30747.289716321302 -6.4613619900725325,68.25007915967535,30235.159326346187 -6.473616794104771,68.25320231788791,29738.31645920514 -6.485760543336738,68.25595430241493,29248.58809563263 -6.497890885954263,68.25838130286587,28762.626187264596 -6.510041867785191,68.26051174035419,28279.570816683692 -6.522208204010241,68.26236621537326,27800.271713463517 -6.534388737399837,68.26396521646214,27326.07136820134 -6.5465885764964185,68.26533194491034,26857.878734850652 -6.558862599961685,68.26649461021216,26394.472361579727 -6.5714122704727345,68.26748742745691,25929.858487414254 -6.584824429640918,68.26835710794393,25444.883250100735 -6.599492689400336,68.26911598515984,24928.875805221585 -6.610911464517358,68.26958915288222,24538.391621164876 -6.622258822332611,68.26997401629907,24160.113394900847 -6.632605333734006,68.27026201842249,23823.782429353178 -6.642348189160288,68.27048664866602,23514.626511932864 -6.651697601645964,68.2706662002929,23224.600159533973 -6.6607705024569555,68.2708116304079,22949.473433401145 -6.669622640909694,68.27093033910162,22686.757158741097 -6.678299934343983,68.27102777928897,22434.669560962953 -6.686830582613567,68.27110807663317,22191.962522699443 -6.695225385883873,68.2711744501457,21957.706362540233 -6.703511365197954,68.27122947229853,21731.121302129963 -6.711685889156371,68.2712751777996,21511.73170853304 -6.719758590671461,68.2713132487071,21299.02581277117 -6.727738862591224,68.27134505064667,21092.594993076906 -6.735623366101919,68.27137168729124,20892.198251930255 -6.743408616702396,68.2713940712223,20697.61181046899 -6.75109936288419,68.27141295284812,20508.657635423177 -6.7586877214649235,68.27142895583847,20325.116603201484 -6.7661782591424355,68.271442593478,20146.768300480442 -6.7681562625108995,68.2714458771944,20100.190166986016 -6.769318770712914,68.27144775525244,20072.84127461701 -6.7696742056565995,68.27144831717898,20064.55443265669 -6.769732750036155,68.27144841392999,20063.12264244644 -6.7697536573245145,68.27144844581976,20062.650439231827 -6.769774563112435,68.27144847488462,20062.21997570253 -6.7698372889089455,68.27144857801152,20060.6912658768 -6.769983644901856,68.27144881090165,20057.233034087436 -6.770401799090649,68.27144946672841,20047.44905912215 -6.771815131877418,68.27145164443758,20014.468894669404 -6.778935567132237,68.27146182580772,19849.355201016126 -6.7891234380744265,68.27147434615917,19617.166842298575 -6.798423806194251,68.27148407484768,19409.192296126188 -6.806912454527122,68.27149183009415,19222.424171731043 -6.814873915049191,68.27149830881301,19049.917664837332 -6.822442114927043,68.2715038808766,18888.261403976052 -6.829704938368451,68.27150878247896,18735.184680671722 -6.836716796340596,68.2715131700548,18589.19607305241 -6.8435111797581385,68.27151714923296,18449.38341581934 -6.850125740813894,68.27152080371522,18314.831881231898 -6.856577227441619,68.27152419081158,18185.02447134742 -6.862894914054948,68.27152736041717,18059.312622280893 -6.869087177418606,68.2715303468712,17937.339719377833 -6.8751707462748755,68.27153318124367,17818.64316939621 -6.881149810771149,68.27153588024638,17703.178738196595 -6.887028559178987,68.27153846337289,17590.648369137543 -6.892823711882414,68.27154094693744,17480.77448169704 -6.898543631473473,68.27154334502949,17373.28292819344 -6.904184144725036,68.27154566308299,17268.217581065415 -6.909757790119727,68.27154791169795,17165.33498857874 -6.915272927282047,68.27155010219425,17064.30705786468 -6.920725380616318,68.27155223413378,16965.312006741275 -6.926123508651216,68.27155431829517,16867.978486437565 -6.931479847357252,68.27155635700159,16772.30488470693 -6.936777685870737,68.27155835245995,16678.274727927543 -6.942046272028904,68.27156031257464,16585.58899746924 -6.947260538260537,68.27156223343948,16494.491817324873 -6.952441375857404,68.27156412304032,16404.654927760967 -6.957588785490913,68.27156598356565,16316.014775443393 -6.962711123876375,68.27156781713023,16228.504905664493 -6.967783322962674,68.27156961851904,16142.402431267594 -6.972834629736525,68.27157139591588,16057.340931584058 -6.977852510274971,68.2715731496065,15973.325263445895 -6.982845320998194,68.27157487978722,15890.363211011874 -6.987792171722049,68.27157658281351,15808.642740088799 -6.992713953044188,68.27157826411398,15727.915518840977 -6.997623199362351,68.2715799281251,15647.97791795966 -7.002490664239161,68.27158156898157,15569.118653386351 -7.007358128586787,68.27158319747308,15490.826568560591 -7.012187989767256,68.27158480305975,15413.613357571534 -7.016996960178375,68.2715863909369,15337.23400217979 -7.021780861802938,68.2715879607811,15261.7076537848 -7.026548050851659,68.27158951445232,15186.948274345232 -7.031281815051642,68.27159104991998,15113.055368983965 -7.0359946886758,68.27159256775644,15040.00457180541 -7.040695027913927,68.27159407236783,14967.58521829849 -7.045370298553848,68.27159556168037,14895.898135436595 -7.050020500615915,68.2715970333211,14825.059473901709 -7.054653990276108,68.27159849034719,14754.923038743502 -7.05927076754989,68.2715999359575,14685.334856786056 -7.063866654369832,68.27160136625282,14616.484055807718 -7.068458363061495,68.27160278676573,14548.104824086588 -7.07301246900289,68.27160418785742,14480.661450969932 -7.07754150643791,68.27160557465001,14413.90745014441 -7.082066365766423,68.2716069524839,14347.586383685846 -7.086574512756783,68.2716083169471,14281.911061884342 -7.091070125492024,68.2716096711663,14216.730690581528 -7.09553231358197,68.27161100952489,14152.315597006791 -7.099981967423076,68.27161233546043,14088.501279455882 -7.1044232650963295,68.27161365298994,14025.093737504978 -7.108847850446523,68.27161495897779,13962.244159532038 -7.1132431892390855,68.27161625044091,13900.095968438703 -7.117634349947593,68.27161753382155,13838.339473991944 -7.12202551065198,68.2716188107362,13776.896824298015 -7.126387424802175,68.27162007272344,13716.175183589547 -7.130736804713763,68.27162132492977,13655.926854687108 -7.1350694723088,68.27162256634087,13596.200596488787 -7.139393783745248,68.2716237998998,13536.854662844635 -7.143709739023421,68.27162502557381,13477.890644995934 -7.148017338143859,68.2716262425336,13419.348691298132 -7.15231240302802,68.27162745087385,13361.22385994351 -7.15656150904681,68.27162864062194,13303.996018226557 -7.160810615065969,68.27162982461518,13247.047673969226 -7.16504300877088,68.27163099960256,13190.534761587836 -7.169287936712408,68.2716321720811,13134.145286728859 -7.173524508497309,68.27163333679398,13078.131906851906 -7.177727655653655,68.27163448769892,13022.78492793234 -7.1819433370470165,68.2716356365521,12967.539236585559 -7.186121415733197,68.27163677060172,12913.00773828481 -7.19031202865645,68.2716379027307,12858.571158224368 -7.194485929266108,68.27163902587056,12804.569102864625 -7.198647295640768,68.27164014038759,12750.984179600351 -7.202800305859228,68.27164124846281,12697.711175114637 -7.20694078184286,68.27164234786088,12644.857898889479 -7.211077079749003,68.27164344193548,12592.262743635238 -7.215209199577657,68.27164453019094,12539.949685975787 -7.219324607092801,68.27164561055709,12488.017828439519 -7.223410768058301,68.27164667771923,12436.723271535344 -7.227492750946283,68.27164773939236,12385.694785353071 -7.2315747338356005,68.27164879799709,12334.815579308613 -7.235648360568632,68.27164984888599,12284.309821130186 -7.239717809224345,68.27165089550077,12234.011310004233 -7.243766367487751,68.27165193213214,12184.194873924947 -7.247819103831091,68.27165296554715,12134.535188511378 -7.251867662096998,68.27165399429371,12085.101793598715 -7.255903686128022,68.27165501551542,12036.03217957669 -7.259931354002873,68.27165603174035,11987.204365053914 -7.263942309564129,68.27165703825399,11938.845733896842 -7.2679574432053755,68.27165804320236,11890.56391045212 -7.271968398769133,68.27165904278368,11842.542122500878 -7.275962642019238,68.27166003457864,11794.896341476497 -7.2799527071919385,68.27166102116648,11747.50283198446 -7.283938594287065,68.27166200348115,11700.31639516638 -7.287903590989856,68.27166297698561,11653.555105004729 -7.29186858769387,68.27166394701398,11606.96265710099 -7.295841940556528,68.27166491498436,11560.471149910658 -7.299811115341669,68.27166587825721,11514.207207883772 -7.3037844682068,68.27166683970533,11468.032553946336 -7.307732752600799,68.27166779138938,11422.32877676447 -7.311668502759801,68.27166873732872,11376.902480534147 -7.315600074841285,68.27166967756465,11331.752366452745 -7.319540003081414,68.27167061703949,11286.640405383692 -7.323463219007834,68.2716715495612,11241.86399962626 -7.3273739006992855,68.27167247618449,11197.372470046688 -7.331276226234422,68.27167339642232,11153.189716260684 -7.335174373691956,68.27167431271859,11109.19786750465 -7.339064164993232,68.27167522453236,11065.422727811123 -7.34295813437447,68.27167613420545,11021.752077412295 -7.343179572547484,68.27167618513383,11019.307469160649 -7.343217175256058,68.27167619442051,11018.861464616919 -7.343233887571046,68.27167619776,11018.701351530854 -7.343246421807237,68.27167620101366,11018.545036024729 -7.343300736830827,68.2716762140945,11017.916927855405 -7.343522175003784,68.27167626511229,11015.467997097823 -7.344232448388965,68.27167643061559,11007.522917542045 -7.348431417519549,68.27167740689134,10960.657422459468 -7.353261276541076,68.271678525483,10906.962569434758 -7.358358532603887,68.27167970154298,10850.511702453165 -7.363815103440544,68.27168095557295,10790.321172561211 -7.369714550626327,68.2716823056848,10725.522287531432 -7.376232353469334,68.27168379079525,10654.24802749903 -7.383823922554086,68.27168551272268,10571.61319401232 -7.391699600998464,68.27168728947227,10486.353261484233 -7.3980001437574,68.27168870381878,10418.488024867622 -7.40366979662727,68.27168997141847,10357.667348996101 -7.409339449499669,68.2716912342192,10297.079885733698 -7.414570404104865,68.27169239551061,10241.365146281572 -7.4194504000962525,68.27169347476675,10189.588606108045 -7.4240546428911784,68.27169448967096,10140.901346124649 -7.428441625592114,68.27169545396343,10094.643770955106 -7.432678197458898,68.27169638324843,10050.066895304813 -7.436806139279213,68.27169728584967,10006.771701726659 -7.4408505195254975,68.27169816731869,9964.491826447995 -7.444823872434,68.27169903167572,9923.03390044713 -7.448755444556014,68.27169988491751,9882.110414571896 -7.452653592048989,68.27170072886884,9841.63382299453 -7.45653920530691,68.27170156748767,9801.414506860592 -7.460412284329607,68.27170240118012,9761.43282210285 -7.464281185274729,68.27170323221132,9721.579945813743 -7.468145908142247,68.27170406057178,9681.856334273842 -7.471989740617005,68.27170488271335,9642.432115538146 -7.475833573092956,68.27170570200332,9603.146244902666 -7.479677405569959,68.27170652038133,9563.904941114115 -7.483525416126952,68.2717073370025,9524.749403194712 -7.487360892448663,68.2717081485901,9485.836630977241 -7.49120472492919,68.2717089606208,9446.903610360183 -7.495036023174407,68.27170976855761,9408.167917141629 -7.498875677578411,68.27171057593222,9369.460571051053 -7.50271951006232,68.2717113822299,9330.80610381134 -7.506567520626163,68.27171218715877,9292.218624506182 -7.510415531191114,68.27171299051373,9253.707689292307 -7.514271897914824,68.27171379434468,9215.174909947375 -7.518115730403309,68.27171459282668,9176.900102494654 -7.521959562892903,68.2717153896497,9138.705942627852 -7.525795039226097,68.27171618299398,9100.679690171928 -7.529630515560399,68.2717169747337,9062.731446191965 -7.53346181381707,68.2717177636611,9024.919238144295 -7.537284755917284,68.27171854948294,8987.25688312025 -7.541107698018607,68.27171933267633,8949.722018456127 -7.544926462042241,68.27172011427632,8912.264254746335 -7.548757760303403,68.27172089578758,8874.81227319088 -7.552589058565729,68.2717216758532,8837.430601439997 -7.556407822592746,68.27172245207342,8800.234169421343 -7.56023494277855,68.27172322834635,8763.036323595568 -7.564053706807869,68.2717240005407,8726.035331721754 -7.567868292759471,68.27172477076611,8689.129576456718 -7.571687056791006,68.27172553958546,8652.292554841 -7.575505820823736,68.27172630716531,8615.515859143956 -7.57932040677872,68.27172707218325,8578.863049953168 -7.583139170813638,68.271727836438,8542.247894360458 -7.586966291007343,68.27172860014207,8505.66047245195 -7.590797589280925,68.27172936361448,8469.085012661166 -7.594624709476875,68.27173012444355,8432.637364411346 -7.5984518296740475,68.27173088346447,8396.27751293382 -7.602270593714621,68.27173163965773,8360.054020792402 -7.606097713913925,68.2717323959598,8323.82637917494 -7.60992483411448,68.27173315000586,8287.708170258356 -7.613751954316058,68.2717339028397,8251.648947177475 -7.617583252597569,68.27173465498169,8215.62391188192 -7.6214103728015345,68.27173540430601,8179.735090176432 -7.625237493006523,68.27173615287921,8143.882964491397 -7.629064613212677,68.27173689863668,8108.167304649363 -7.632900089577646,68.2717376454149,8072.403416768866 -7.636727209786102,68.27173838890714,8036.798007539382 -7.64053761768028,68.27173912791064,8001.408489165345 -7.644360559812128,68.27173986719318,7966.0069316629115 -7.648179323866287,68.27174060426904,7930.712038491108 -7.6520022660003235,68.2717413408721,7895.440727775222 -7.6558126738990495,68.27174207388381,7860.342280854029 -7.659627259877709,68.27174280527784,7825.322733894674 -7.663433489699884,68.27174353426157,7790.419323621035 -7.667256431838439,68.27174426520165,7755.42317104693 -7.671066839741684,68.27174499165282,7720.643237069459 -7.674885603803659,68.27174571890399,7685.825725626745 -7.6786918336303245,68.27174644157306,7651.228927681973 -7.68251059769463,68.27174716532217,7616.581372344265 -7.68633771791761,68.27174788948523,7581.914890625177 -7.690148125826454,68.27174860956961,7547.444434557847 -7.693966889894114,68.27174932864864,7513.023624515357 -7.697768941647581,68.27175004366683,7478.797969528009 -7.701575171480897,68.27175075833004,7444.590179076215 -7.705389757473114,68.27175147338454,7410.364550015508 -7.709208521545236,68.2717521870629,7376.206118944344 -7.713023107539669,68.27175289913771,7342.1251688043685 -7.7168335154563295,68.2717536088108,7308.160256837302 -7.720643923374098,68.27175431765704,7274.235646031333 -7.724462687450796,68.27175502563998,7240.353803260864 -7.728268917291956,68.27175573101582,7206.597207643412 -7.732079325213164,68.27175643519726,7172.899017343143 -7.735877198898862,68.2717571358766,7139.369307329407 -7.739683428743405,68.27175783617325,7105.859135190109 -7.7434813024313485,68.27175853478971,7072.429772040842 -7.74729171035699,68.27175923340192,7039.002015305137 -7.75110629636265,68.27175993163397,7005.593319706626 -7.754920882369419,68.27176062884858,6972.234117857443 -7.758731290298442,68.27176132375365,6938.986473474786 -7.762533342070839,68.27176201652311,6905.84162869725 -7.7663562842387535,68.27176271068235,6872.631747409026 -7.770158336013367,68.27176340036068,6839.636897816575 -7.773964565868084,68.27176408947112,6806.670167038341 -7.777787508039296,68.27176478035732,6773.619403748761 -7.7815979159750555,68.27176546803821,6740.722747552978 -7.785391611596424,68.27176615113618,6708.0463869515615 -7.789176951061108,68.2717668314943,6675.50199286398 -7.792970646684722,68.2717675119986,6642.951568387746 -7.7967601642305056,68.27176819041642,6610.501900370519 -7.800553859856365,68.2717688684308,6578.072393912986 -7.804347555483247,68.27176954538552,6545.6943933264165 -7.808145429190148,68.27177022185663,6513.340426432346 -7.811947480977068,68.2717708983184,6480.987584936448 -7.815770423159563,68.27177157644572,6448.556380288979 -7.819593365343138,68.27177225357795,6416.173560953579 -7.823403773291233,68.27177292711357,6383.963719622575 -7.8272016470037045,68.27177359777107,6351.892147986801 -7.831007876875134,68.27177426859497,6319.813560674137 -7.834805750589851,68.27177493620457,6287.889826407536 -7.838616158542379,68.2717756054766,6255.887171258465 -7.842405676101606,68.2717762699121,6224.116657667343 -7.8462077278985305,68.27177693525307,6192.3037794113525 -7.850013957775531,68.27177759950814,6160.54400921243 -7.853811831495847,68.2717782621726,6128.860660345545 -7.8576222394540025,68.27177892535374,6097.153726517289 -7.861420113176592,68.2717795847121,6065.6306608130635 -7.865234699215819,68.27178024626491,6034.003331330724 -7.86904928525621,68.27178090701821,6002.4149188591155 -7.872855515139861,68.27178156524617,5970.948064488574 -7.876665923103587,68.2717822221713,5939.544783024994 -7.880480509147361,68.2717828793008,5908.132285573444 -7.884290917113333,68.27178353475983,5876.800408254484 -7.8881055031593235,68.27178418928091,5845.514479085806 -7.891928445364357,68.27178484473383,5814.184555365404 -7.895743031412593,68.27178549704004,5783.0061818882905 -7.899540905146381,68.27178614546293,5752.014221616598 -7.903334600802253,68.27178679291661,5721.069005719164 -7.907124118380324,68.27178743758732,5690.258116251203 -7.910930348275201,68.27178808410459,5659.359760360604 -7.914719865855574,68.27178872740927,5628.615416297051 -7.918530273831607,68.27178937289345,5597.767880468443 -7.922336503729866,68.27179001612319,5567.029145068406 -7.926138555550381,68.27179065780517,5536.365080758755 -7.929944785450829,68.27179129907128,5505.721737903251 -7.933751015352442,68.27179193932527,5475.127553600647 -7.937561423334046,68.27179257966391,5444.529920412104 -7.9413634751589655,68.27179321741012,5414.057043360454 -7.945173883142843,68.27179385477496,5383.603569837496 -7.948971756891069,68.27179448947871,5353.2778103994615 -7.952761274482526,68.27179512207313,5323.053472509028 -7.9565800386276635,68.2717957585512,5292.64436772955 -7.960373734300248,68.27179638940464,5262.505001708782 -7.96419249844763,68.27179702339946,5232.216355326645 -7.9679778379645825,68.27179765058577,5202.253896728019 -7.971784067877337,68.27179828101366,5172.136966324596 -7.9755861197123465,68.27179890883005,5142.146045686954 -7.979388171548379,68.27179953640014,5112.167292946493 -7.983198579543426,68.2718001637271,5082.201257017977 -7.987021521776427,68.27180079266543,5052.158755721895 -7.9908361078527435,68.27180141877545,5022.2523729659915 -7.994633981614271,68.27180204165178,4992.500973395907 -7.998431855377049,68.27180266326765,4962.8106963200335 -8.00223390721979,68.27180328452403,4933.1383958913775 -8.006027602905817,68.27180390354874,4903.573397422253 -8.009846367066586,68.2718045251115,4873.888251400212 -8.01364006275486,68.2718051424967,4844.402939352707 -8.017437936523066,68.27180575888252,4814.966489701144 -8.021256700687246,68.27180637839103,4785.381317268775 -8.025062930615604,68.27180699403633,4755.9818507612135 -8.028864982466246,68.27180760894389,4726.617910564674 -8.03266703431791,68.27180822267182,4697.311178416745 -8.036456551933895,68.27180883319943,4668.158143133009 -8.040254425708923,68.27180944386406,4638.999457103601 -8.044043943327011,68.27181005277662,4609.924903999987 -8.047825104788359,68.27181065923982,4580.968139254583 -8.051610444329754,68.27181126491594,4552.049976782107 -8.055408318109158,68.27181187228732,4523.051294852352 -8.059218726126545,68.27181248058046,4494.009429394028 -8.062999887592326,68.2718130834263,4465.228302326117 -8.066793583296175,68.27181368697126,4436.414737778444 -8.070591457079985,68.2718142911029,4407.573458711774 -8.074372618549035,68.27181489063967,4378.952815759392 -8.07817884849311,68.27181549386589,4350.156450786771 -8.081989256517176,68.27181609657325,4321.3857340675 -8.085799664542435,68.27181669846144,4292.654810609027 -8.089597538331844,68.27181729754238,4264.05858007097 -8.093395412122362,68.2718178957165,4235.506369751679 -8.09720164207198,68.27181849406645,4206.946625199229 -8.100995337785776,68.27181908981402,4178.511680045072 -8.10478903350068,68.27181968467671,4150.119690382231 -8.108582729216664,68.27182027901195,4121.753404469817 -8.112368068775822,68.27182087049023,4093.5245491225764 -8.116161764494024,68.27182146245791,4065.2730223788494 -8.119955460213333,68.27182205420428,4037.032419475899 -8.123753334012804,68.27182264515447,4008.8308376551104 -8.12756792012928,68.27182323791028,3980.5437612476044 -8.131374150088902,68.2718238285287,3952.3593817292162 -8.135167845812731,68.27182441661061,3924.2966049087877 -8.138978253853594,68.27182500613854,3896.165689010528 -8.142792839974533,68.27182559568935,3868.034260960577 -8.146594891859706,68.27182618231933,3840.042981738766 -8.150396943745932,68.27182676806946,3812.0944021767687 -8.15419899563318,68.27182735291014,3784.189951479789 -8.157992691363688,68.27182793539743,3756.398608571603 -8.16180309941123,68.27182852004043,3728.5048749931307 -8.1656218636179,68.27182910487514,3700.6028304329407 -8.169428093588692,68.27182968703592,3672.82900671653 -8.173225967402658,68.2718302669349,3645.163864033094 -8.177028019296671,68.2718308471076,3617.486098098417 -8.180834249270845,68.27183142678335,3589.8328974276596 -8.184619588851064,68.27183200271375,3562.358910123714 -8.18841328459041,68.27183257883722,3534.876540212435 -8.192219514567938,68.27183315558689,3507.3652349492854 -8.19602992262557,68.27183373272081,3479.8359721895226 -8.199831974526234,68.27183430754557,3452.4176637596424 -8.20363402642812,68.27183488202986,3425.0160139492564 -8.207456968726092,68.27183545858651,3397.516351845378 -8.211267376788214,68.27183603228181,3370.1539340650775 -8.215065250614401,68.271836603327,3342.918567384624 -8.218871480599745,68.27183717484044,3315.6615354856503 -8.222681888665164,68.2718377464235,3288.4017216687726 -8.226488118652753,68.27183831679636,3261.2001768472205 -8.23029017056237,68.27183888500832,3234.1027726977995 -8.234096400552119,68.27183945363177,3206.9860889273536 -8.237894274384956,68.27184001969991,3179.992221642277 -8.241696326297955,68.27184058641127,3152.9678921364084 -8.245506734370082,68.27184115292799,3125.9538790247543 -8.249308786285354,68.27184171755594,3099.030517655401 -8.253102482043573,68.27184228043063,3072.191266606642 -8.256896177803014,68.27184284204479,3045.413054835764 -8.260694051642531,68.27184340420756,3018.6089423219737 -8.26450863779931,68.27184396747937,2991.7529449262333 -8.268293977403943,68.2718445256784,2965.1394573324715 -8.272091851246813,68.27184508547494,2938.45016308334 -8.275898081248812,68.27184564529563,2911.760623751657 -8.279691777014904,68.27184620245279,2885.198751676493 -8.283481294702995,68.27184675855976,2858.687410763142 -8.287279168550242,68.27184731544384,2832.1394934235377 -8.291085398556817,68.27184787200034,2805.608298364407 -8.294895806643467,68.27184842883587,2779.06420586974 -8.29869785857312,68.2718489836635,2752.6164953912744 -8.30249155434592,68.27184953670235,2726.2545922314425 -8.306276893961552,68.27185008789547,2699.9812422619048 -8.310091480131746,68.2718506425075,2673.5456217265037 -8.313914422461124,68.27185119721128,2647.106491479349 -8.317724830554482,68.2718517499287,2620.762345536471 -8.321543594807082,68.27185230251939,2594.4252255714496 -8.32534146866547,68.27185285173489,2568.249385980667 -8.329147698683101,68.27185340119021,2542.0628872446327 -8.332949750622902,68.27185394996008,2515.909313296578 -8.336768514879964,68.27185449950564,2489.7199309739226 -8.340549676426633,68.27185504372562,2463.7845021234193 -8.34434755029065,68.27185558906584,2437.7966431838104 -8.348149602234827,68.27185613438748,2411.8102361208307 -8.351964188417327,68.27185668104048,2385.760865153844 -8.355774596521826,68.27185722634258,2359.7765134521783 -8.3595766484693,68.27185777002745,2333.869676586888 -8.363366166180782,68.27185831086098,2308.099531858053 -8.367172396209554,68.27185885352266,2282.24280883716 -8.370982804318572,68.27185939587854,2256.401390589323 -8.374789034349618,68.27185993658463,2230.639403675383 -8.37858273014453,68.27186047582535,2204.947248093115 -8.382380604019716,68.27186101418003,2179.298383409752 -8.386170121737734,68.27186155111899,2153.717302779517 -8.389967995615109,68.27186208805519,2128.1372572016853 -8.393757513335458,68.27186262319863,2102.643180780985 -8.397534496819645,68.27186315636959,2077.243388273996 -8.401328192621179,68.2718636909118,2051.7790557677445 -8.405121888423935,68.27186422523936,2026.3252741418478 -8.40891140614869,68.27186475755333,2000.9684574684727 -8.412688389637225,68.27186528806918,1975.6975119135902 -8.416490441601383,68.27186582088598,1950.317885965287 -8.420284137408629,68.27186635206273,1925.0168558129653 -8.424056942821437,68.27186688003299,1899.8689183960264 -8.427858994788949,68.27186741111333,1874.5736268114922 -8.43165686867846,68.27186794071866,1849.3493188567288 -8.435458920648216,68.27186847079392,1824.1028913533503 -8.439265150698134,68.27186900026061,1798.8863581803978 -8.443063024590998,68.27186952867724,1773.7199593479288 -8.44686925464319,68.2718700565948,1748.5785243867338 -8.450658772380109,68.27187058202416,1723.5558800040583 -8.454448290118108,68.27187110706757,1698.5520403049372 -8.458229451699026,68.27187163037075,1673.6316145993007 -8.462044037913842,68.27187215713238,1648.5473918976093 -8.465837733734332,68.2718726803125,1623.6343315567074 -8.469627251476737,68.27187320273931,1598.7574376203445 -8.473437659615826,68.27187372745061,1573.7723135557485 -8.477248067755994,68.27187425119826,1548.833850369836 -8.48106265397638,68.27187477477044,1523.904389876686 -8.484873062118766,68.27187529718066,1499.030801174173 -8.488662579866826,68.27187581661606,1474.2991079332492 -8.492468809932348,68.27187633720133,1449.513550277588 -8.496270861919868,68.27187685689667,1424.7707442951767 -8.500060379671226,68.27187737400459,1400.1518472221492 -8.503858253581825,68.27187789168944,1375.506012532847 -8.507660305572728,68.27187840929611,1350.8644831990064 -8.511454001406463,68.27187892517851,1326.3055843152704 -8.515235163004036,68.27187943897368,1301.8464669938878 -8.519020502681713,68.27187995218317,1277.4161249245933 -8.522822554677049,68.27188046784347,1252.8691828196008 -8.526641318989903,68.27188098457376,1228.2722307534643 -8.5304183025128,68.27188149510347,1203.9709517277595 -8.534199464115801,68.27188200551988,1179.6756667668278 -8.53800987227379,68.2718825193038,1155.220631535876 -8.541820280432944,68.27188303259875,1130.7893558382623 -8.545618154355793,68.2718835436522,1106.4652926251617 -8.549407672121532,68.27188405311782,1082.217270526415 -8.553218080284012,68.27188456478879,1057.8648402262797 -8.557028488447543,68.27188507549617,1033.5590517435662 -8.56083471853313,68.27188558512347,1009.3051699626392 -8.564632592461521,68.27188609306461,985.1320687684245 -8.568422110232746,68.27188659950505,961.0308018198316 -8.572228340321658,68.27188710755844,936.8533420315628 -8.576022036174265,68.2718876134013,912.7815905062699 -8.579828266265451,68.27188811983925,888.682372950964 -8.583592715566311,68.27188862088798,864.8396712310065 -8.587390589501354,68.27188912514202,840.8453994682872 -8.591180107279285,68.2718896278893,816.9232497048238 -8.594973803137407,68.27189013089934,792.9889541832115 -8.598775855154997,68.27189063411711,769.0455156196468 -8.602557016777808,68.27189113428275,745.2476548566713 -8.606367424955891,68.27189163726156,721.3167854308459 -8.610173655055917,68.27189213965455,697.4139820552359 -8.613971528998775,68.27189263963905,673.6267699917885 -8.617781937180155,68.27189314140273,649.7550024783101 -8.62158398920431,68.27189364145502,625.9652152758177 -8.625386041229689,68.27189414075832,602.2117097703092 -8.629179737097758,68.27189463804241,578.5550220843492 -8.632973432966992,68.27189513515187,554.9069228785671 -8.636746238441617,68.27189562936407,531.3969191690176 -8.640544112392178,68.2718961256638,507.78854387138205 -8.644346164422984,68.27189662240407,484.15944842201543 -8.648139860296652,68.27189711706245,460.63018809700907 -8.651925200013125,68.27189761048906,437.15977704131694 -8.655702183572402,68.27189810207263,413.77768233082134 -8.659495879449395,68.27189859511769,390.3266982743908 -8.663297931485772,68.27189908906988,366.8328490547564 -8.667104161602396,68.27189958244257,343.36745385209696 -8.670910391720241,68.2719000754628,319.9192145568067 -8.674695731443336,68.27190056589326,296.59423473478927 -8.678481071167482,68.27190105498431,273.33398770680753 -8.682283123209402,68.2719015459027,249.9872168154824 -8.68609353141079,68.27190203761162,226.60320100891184 -8.68988722729668,68.27190252670526,203.34402078764765 -8.693685101262844,68.27190301531931,180.10847328207296 -8.697462084834171,68.27190350115579,157.00522914059158 -8.701276671119217,68.27190399061773,133.73053537563246 -8.705074545088593,68.27190447822886,110.54381957527472 -8.708855706742526,68.27190496276356,87.50416259347942 -8.712661936872536,68.27190545003788,64.334705653658 -8.716480701241153,68.2719059382116,41.12310704808591 -8.720278575215048,68.27190642319934,18.06349363799449 -8.724076449189965,68.27190690780016,-4.977307979095038</coordinates>
      </LineString>
      <styleUrl>#19050</styleUrl>
    </Placemark>
  </Document>
</kml>
