<?xml version='1.0' encoding='UTF-8'?>
<kml xmlns="http://www.opengis.net/kml/2.2" xmlns:atom="http://www.w3.org/2005/Atom" xmlns:gx="http://www.google.com/kml/ext/2.2">
  <Document>
    <name>Trajectory drag_s1s2_separation</name>
    <Style id="19050">
      <LineStyle>
        <color>ff0000ff</color>
        <width>5</width>
      </LineStyle>
    </Style>
    <Placemark>
      <name>Separation Point drag_s1s2_separation</name>
      <Point>
        <altitudeMode>relativeToGround</altitudeMode>
        <coordinates>-1.333839771126378,61.6976616897278,67533.51177759659</coordinates>
      </Point>
      <Style>
        <IconStyle>
          <Icon>
            <href>http://maps.google.com/mapfiles/kml/shapes/placemark_square.png</href>
          </Icon>
        </IconStyle>
      </Style>
    </Placemark>
    <Placemark>
      <name>Trajectory drag_s1s2_separation</name>
      <LineString>
        <extrude>1</extrude>
        <altitudeMode>relativeToGround</altitudeMode>
        <coordinates>-1.333839771126378,61.6976616897278,67533.51177759659 -1.334179170007502,61.69820229762779,67554.86759173054 -1.336380505672338,61.7016850691139,67692.30501160787 -1.358376075288902,61.736495773423165,69052.32905853789 -1.4034076604988002,61.807560159239834,71751.36461553785 -1.4041062329258693,61.80866011406508,71792.3228554759 -1.4042531512658059,61.808894905299866,71801.06237605512 -1.404391042085507,61.80910869899197,71809.01932504342 -1.404932492630536,61.809959758788494,71840.68461622874 -1.4083677870984843,61.81537260404384,72041.72974603996 -1.4404589842871474,61.86583944866959,73887.0383069147 -1.4876673882580747,61.93984557965212,76497.65587172576 -1.5377219818531103,62.0180156357978,79131.58293272354 -1.5913048077916585,62.10136088973199,81799.59014057365 -1.6488212547320984,62.19044535353874,84490.72541807414 -1.662909127343056,62.212205958243494,85122.81319155931 -1.6770087919439618,62.23396144864919,85744.8180533252 -1.6795460722613882,62.23787389120607,85855.62321846161 -1.682083736843225,62.241786172534646,85966.1023225272 -1.6828573142632308,62.242977012192505,85999.66667481943 -1.6828640633482337,62.242992260138514,86000.09625204002 -1.6828743557989014,62.24300607410163,86000.48542553226 -1.6829493472839943,62.24311886271676,86003.66281012748 -1.6834108918087054,62.243831211324654,86023.72431366592 -1.6880312174380663,62.25095440574667,86223.74482319877 -1.734321922641925,62.322157925418715,88164.51818440462 -1.7957502358956958,62.416261244098116,90565.64488778696 -1.8022916162697413,62.426255799421526,90809.68977895478 -1.8054664210262104,62.43110188495562,90927.26106268227 -1.8068339633343555,62.43319237577907,90977.82549843608 -1.8073723049622856,62.43401100436267,90997.60119560534 -1.8076835695856062,62.43449088498438,91009.18714147006 -1.8079712461409656,62.4349274628821,91019.72338672822 -1.809889569602177,62.43785424787998,91090.2536024798 -1.8290686046195788,62.4671179991172,91785.50454945961 -1.9107803086977526,62.59130899503074,94534.43428809219 -1.9970657206114026,62.72163562876545,97067.4733678169 -2.0916245656497097,62.863498087859575,99414.14281489214 -2.1213821155176333,62.907931159548575,100060.95140378781 -2.149842608089074,62.95034424016519,100639.05658401657 -2.297392235497483,63.168790331985164,103007.64296282026 -2.4464292343972147,63.387054748427865,104353.64078645123 -2.6046396707103554,63.61615959354093,104666.76947456482 -2.803283223506071,63.90012085095169,103489.8921441968 -2.95947135963857,64.12054778093784,101382.03001359712 -2.9932946902408446,64.16795962554943,100792.33046039601 -3.027208788927794,64.21537727486373,100154.32222296602 -3.0319842599702724,64.22204709142089,100060.71044278683 -3.034092425370943,64.22499149152715,100019.0818496467 -3.034940121583759,64.22617285190023,100002.32724945185 -3.0355190274614756,64.22698196133565,99990.83481636347 -3.0360477252131943,64.22771700379108,99980.38224658516 -3.040550165370405,64.23400048204559,99890.55607067938 -3.0856638291998024,64.296842024276,98945.6329922965 -3.205871731066111,64.4632943308002,96033.96535857844 -3.3041347691248575,64.59830245193805,93237.05527202469 -3.3561992696970435,64.66945334744133,91606.44775587185 -3.365777365576804,64.68251750630098,91295.31631596616 -3.3708345430158886,64.6894070529286,91129.77205511318 -3.3734149622272582,64.69292506616563,91044.84989965356 -3.374432334488546,64.69430869122417,91011.37797575828 -3.3747568410920223,64.69475005782083,91000.69208582895 -3.375081356005211,64.69519142552357,90990.00201753419 -3.375380264861036,64.6956000473865,90980.10136301762 -3.3776321956880793,64.69866764628313,90905.6617174224 -3.40017781440676,64.72934660753721,90150.16368523374 -3.4798872724973364,64.8374291853575,87328.89122228767 -3.5099058364519067,64.87796994545393,86206.59595853744 -3.5141582229900052,64.88370633927991,86044.97494456435 -3.5148000052351165,64.88457079728283,86020.5585342362 -3.5151154146402916,64.88499665901789,86008.52433649394 -3.5152831835692098,64.88522450200506,86002.08426257767 -3.515327339871419,64.8852836497264,86000.41224817999 -3.5153391067042037,64.88529784412954,86000.01098341057 -3.5153502721000507,64.88531091356087,85999.64151695663 -3.515441062915727,64.88543384328453,85996.16617534745 -3.5159528193876497,64.88612532705929,85976.61128421687 -3.520388844125847,64.89210775030492,85807.00679255713 -3.5648444778862256,64.95194473658329,84068.80438976773 -3.64002699624254,65.05271010016041,80970.13046349579 -3.7108608426874525,65.14714530011241,77871.06239377955 -3.7769217116375273,65.23478843977267,74826.36014822545 -3.8389388128987605,65.31668822004953,71834.78652605212 -3.839516809700143,65.31744681082598,71806.41684893378 -3.8396671692963764,65.31764327546598,71799.06751496898 -3.839804833484635,65.31782432602976,71792.29406990173 -3.8404389864432176,65.31866177373745,71760.95458225504 -3.8466491071632447,65.32684098618147,71454.09060046547 -3.90891111594874,65.40863748095745,68307.83204631455 -3.9688763780347927,65.48706111689822,65159.12516366136 -4.0272854190402825,65.56309741610976,61982.70249582551 -4.085174780809808,65.6381048067421,58729.89756070643 -4.144418116079294,65.71448244291717,55295.442815027556 -4.157568200210676,65.73138104925567,54518.8357966229 -4.170721618713401,65.74826292563775,53736.92118332008 -4.185511829020726,65.76721519972563,52851.85945036337 -4.200298960599326,65.78614096655208,51960.35917945132 -4.202726915577273,65.78924573866354,51813.37449694002 -4.205154840293972,65.7923496934183,51666.22138679203 -4.208127173880172,65.79614682001626,51485.924399036194 -4.209002900391624,65.79726518029226,51432.76273195611 -4.209340384099448,65.7977003728445,51412.06841679131 -4.209382459741931,65.79775184935716,51409.620331580336 -4.20941761933355,65.79779855470754,51407.399100458715 -4.209686907390051,65.79814402136354,51390.96780594486 -4.210777589979529,65.79953480814991,51324.792364909306 -4.216245593766928,65.8065191221444,50991.839528234275 -4.265458858552762,65.86917727794079,47957.57691924232 -4.268375336644851,65.87287624749452,47775.77744113306 -4.271287095707237,65.87657319076276,47593.77762297236 -4.27233826804644,65.87790862332405,47527.9607417279 -4.27339354269634,65.87924378264682,47462.118149642716 -4.275073025027581,65.88137725549561,47356.82584387951 -4.275150369089914,65.88147497452935,47352.00076346146 -4.27519163798101,65.88152471277557,47349.5447536512 -4.275212623005672,65.88155380465707,47348.108208930425 -4.275236263860819,65.8815802615644,47346.801762344 -4.275327739641739,65.88169520801189,47341.12550740875 -4.275598270312344,65.88204052810677,47324.0712532128 -4.277770986640604,65.88479571537238,47187.90735621281 -4.293143613938497,65.90426116702858,46221.13342991615 -4.330127406833668,65.95092298327228,43869.24550245544 -4.358562745490616,65.9866083108425,42037.302074491534 -4.382759716054039,66.01682436454963,40463.00801803153 -4.403914563612659,66.04311201684835,39075.687594515584 -4.422626061024374,66.06624634023295,37840.76850747034 -4.438945009665105,66.08631701790884,36758.43533590715 -4.455103171281053,66.10608200785256,35682.312144882104 -4.47022530348363,66.1244683175917,34671.76562780151 -4.487265499582122,66.14504451400998,33529.543851541974 -4.506441171480844,66.16797661462,32241.682690078855 -4.507577468605689,66.16932625411916,32165.37706082211 -4.507610663896543,66.16936826832699,32163.00073559961 -4.507628618223208,66.16939157012986,32161.682760308267 -4.507636757672827,66.1693982705803,32161.303772631072 -4.507640719004627,66.1694049709515,32160.924787577977 -4.507662088151193,66.1694269816882,32159.67981141611 -4.507719177210248,66.16949527640261,32155.816810953147 -4.507878026572001,66.16968622155473,32145.015457032023 -4.5083256894461385,66.17021725145369,32114.97009732286 -4.51060921837356,66.17292732141152,31961.4945008252 -4.521779637212717,66.18612882852719,31210.421289282065 -4.540019415223071,66.20744233178002,29985.134834380442 -4.556043011844679,66.2258955748578,28910.56949375534 -4.570751227705216,66.24255934701038,27928.146579588294 -4.584870386334302,66.25828172483679,26989.58074990083 -4.599063892790696,66.27376554168865,26052.877446030445 -4.613078420096457,66.28869929032426,25136.242983570395 -4.62498367868929,66.30107126695364,24365.61454123421 -4.636424122944533,66.31265381890773,23633.554304956495 -4.647686403155092,66.32373259655027,22922.279334389666 -4.659025593662761,66.33452550200005,22217.258949103096 -4.671034131301326,66.3455266053051,21484.109649844584 -4.685919466051445,66.35849199803413,20597.032554556852 -4.688524165145509,66.36068038465254,20444.410459329036 -4.691099330509417,66.36281921264754,20294.336556642695 -4.693202876948959,66.36454804582166,20172.344987215973 -4.693676308213611,66.3649328751638,20145.104244726954 -4.694144580895511,66.36531606039566,20117.94816287957 -4.694488707650294,66.36559687448093,20098.026798712737 -4.694836485455426,66.36587680495995,20078.15094348686 -4.6949684424588725,66.36598521158618,20070.449136256015 -4.695058224200778,66.36605817766865,20065.263761064263 -4.695091441837462,66.36608565929583,20063.310458725842 -4.695100141718626,66.36609318815887,20062.775303061113 -4.6951130192950075,66.36610071638827,20062.240180414778 -4.695139496985206,66.36612393238829,20060.58985678953 -4.695204430966612,66.3661763956538,20056.86003415652 -4.695357233225792,66.3662986375285,20048.167002952294 -4.695925191929547,66.36675732202492,20015.5186974245 -4.698787949755939,66.36905395365467,19851.327331916415 -4.707543696177538,66.37587249215112,19356.199746720475 -4.715802897475754,66.38202157501104,18898.51420404934 -4.723542377798907,66.38752615457385,18478.206765749095 -4.73085540626829,66.39250038752668,18088.297144667515 -4.737751624955308,66.39698172379227,17727.44728302339 -4.744103049944499,66.40093158770912,17400.670542855627 -4.750416993280851,66.40468634818092,17081.29391999767 -4.757545720969517,66.40872460388536,16726.789303158166 -4.765396330749752,66.41292667650058,16343.67583257308 -4.774088416586125,66.41728296416828,15928.144381110327 -4.783945228503342,66.42185836197001,15467.020590002146 -4.7959391756585035,66.42692126867792,14919.275852726794 -4.808269151411281,66.43157746976009,14369.862346541833 -4.820210915825413,66.43558958486584,13849.346992528317 -4.831142913878693,66.43886268363275,13381.523882511414 -4.841731626860025,66.44169153006644,12935.78406228036 -4.8522335899674545,66.44418988085246,12500.112187104769 -4.862764362057845,66.44641089940276,12069.179000870783 -4.873392273199755,66.44838483426634,11640.432120314716 -4.884146000651043,66.45013158092898,11212.890651100895 -4.886331566095407,66.45045838920743,11126.626088238116 -4.888515143583874,66.45077499822943,11040.872014130173 -4.8888440122612735,66.45082158284256,11028.06485698331 -4.888944507143066,66.45083582922422,11024.138243197083 -4.889044989427106,66.45085005476899,11020.21269219723 -4.889072540131025,66.45085417771733,11019.074084238053 -4.889077330718209,66.45085519508109,11018.793063842155 -4.889086299318478,66.4508562123456,11018.512048890992 -4.889118316138195,66.45086081373455,11017.240630712142 -4.8892141018502,66.45087417821739,11013.545076877426 -4.889488024867973,66.45091277739458,11002.848208637075 -4.89049646081142,66.45105410316987,10963.382366444961 -4.896996952608276,66.45192083705746,10710.200380914666 -4.906486298653277,66.45305456558998,10344.880007229502 -4.916106344545966,66.45405912288129,9979.473651909304 -4.926008502157572,66.45495700213769,9608.369987330105 -4.936221291260921,66.45575393169459,9231.14578530912 -4.946820912457724,66.45645851158514,8845.821346276052 -4.957956122668293,66.45708192075757,8447.688463815857 -4.969991452338434,66.45763992411806,8025.29307835481 -4.983988683923116,66.45816176437283,7544.614922503379 -4.996975128483513,66.45854524185386,7108.747545810367 -5.008335363863495,66.4588154930069,6735.521805455849 -5.01966501060636,66.45903509159217,6370.644178867356 -5.030274489565926,66.45920324563974,6035.405855389809 -5.040432386663468,66.4593359123935,5720.365468313304 -5.05028645830825,66.45944262380144,5419.878363486023 -5.059923879836134,66.45952940747416,5130.985024523453 -5.06938480385611,66.45960051021545,4851.878311577491 -5.07869620189939,66.45965909841043,4581.347835730401 -5.087880422266068,66.45970759403137,4318.634574016766 -5.096946982097279,66.45974792725316,4063.065172088816 -5.105896792420566,66.45978160824718,3814.3110009875218 -5.114738955229313,66.45980987633854,3571.967803671845 -5.123474067872081,66.45983372223299,3335.795976399447 -5.132094257809399,66.45985394682874,3105.6539908498394 -5.140604102570876,66.45987121508462,2881.269535961095 -5.149003921726148,66.45988605623036,2662.548870291171 -5.157289800591798,66.4598989091245,2449.293696719641 -5.165466130979638,66.4599101306346,2241.309491009202 -5.1735289069886505,66.45992000726892,2038.4828035132018 -5.181474090831671,66.45992877324127,1840.6863017824535 -5.189310153501225,66.45993662268893,1647.7070809189831 -5.197028830439564,66.45994370828537,1459.4725329752644 -5.204642731963872,66.45995016177787,1275.7004979973037 -5.212143561951024,66.45995608412038,1096.3025226144193 -5.219539726284921,66.45996156309803,921.0181639273796 -5.226835442303013,66.45996666504695,749.7759462480138 -5.234026564332055,66.45997144736018,582.3966399377856 -5.2411214748337045,66.45997595783587,418.68102412744986 -5.248116016732183,66.45998023290544,258.54736592952287 -5.255026919965076,66.45998430842153,101.68980459383688 -5.261841663839533,66.45998820546893,-51.836473799858815</coordinates>
      </LineString>
      <styleUrl>#19050</styleUrl>
    </Placemark>
  </Document>
</kml>
