<?xml version='1.0' encoding='UTF-8'?>
<kml xmlns="http://www.opengis.net/kml/2.2" xmlns:atom="http://www.w3.org/2005/Atom" xmlns:gx="http://www.google.com/kml/ext/2.2">
  <Document>
    <name>Trajectory drag_s2s3_separation</name>
    <Style id="19050">
      <LineStyle>
        <color>ff0000ff</color>
        <width>5</width>
      </LineStyle>
    </Style>
    <Placemark>
      <name>Separation Point drag_s2s3_separation</name>
      <Point>
        <altitudeMode>relativeToGround</altitudeMode>
        <coordinates>-10.976341520149873,72.25430223623094,170822.0706130068</coordinates>
      </Point>
      <Style>
        <IconStyle>
          <Icon>
            <href>http://maps.google.com/mapfiles/kml/shapes/placemark_square.png</href>
          </Icon>
        </IconStyle>
      </Style>
    </Placemark>
    <Placemark>
      <name>Trajectory drag_s2s3_separation</name>
      <LineString>
        <extrude>1</extrude>
        <altitudeMode>relativeToGround</altitudeMode>
        <coordinates>-10.976341520149873,72.25430223623094,170822.0706130068 -10.977514043908826,72.25513606581788,170828.9383739193 -10.98254400020383,72.25871729962718,170858.42830408167 -11.001071192881568,72.27190087167888,170966.8974825345 -11.086072194937401,72.3321236527692,171460.5471749004 -11.680222867501726,72.7419319913029,174739.31017931743 -17.31726362022536,75.83953369496486,194834.2079172777 -24.793977112103676,78.48469995104253,204920.17805910425 -36.1970231635639,80.84583859870094,207229.4572464639 -59.36142188945371,82.94710675276961,199374.94429719276 -92.64544841818382,83.30605918406957,179170.0953428481 -112.5848980455731,82.34612326941931,158801.1063161266 -120.94015544437731,81.53605628371523,145679.7437895935 -125.95350410772463,80.8675027625079,135375.3005148444 -128.87563684415267,80.3938186154641,128156.91425666236 -130.98594024838846,80.00486616985245,122232.55798979338 -131.45501201938748,79.91242091937569,120822.18334048871 -131.62650353094702,79.878045957233,120297.41076510669 -131.70182525381358,79.86284938837245,120065.35495478974 -131.7228798104663,79.85859019706528,120000.30879589786 -131.74391758408234,79.85432963268568,119935.2385074182 -131.7645725102822,79.85014252489981,119871.28700034162 -131.90457433327376,79.82163820339703,119435.84508107974 -133.26448108799548,79.53332908472814,115022.21824651743 -134.28069175080907,79.30354731015397,111490.07877597531 -134.64327604448167,79.21839787705574,110177.40408266461 -134.67843073921352,79.2100507745421,110048.60677786727 -134.69007881748183,79.20728109027858,110005.86534012973 -134.70172125459754,79.20451095303332,109963.11456012107 -134.71246017147138,79.20195476519005,109923.66351396314 -134.8195776245619,79.17637174419465,109528.71567963246 -135.86492662875008,78.91847347681463,105535.50775426564 -136.93600394787939,78.63787139398478,101164.4261474656 -137.11003860518105,78.59062337304707,100425.53335555411 -137.19257002375988,78.56805020379194,100072.21671088158 -137.20886665075523,78.56357938786418,100002.21574927206 -137.20944437244557,78.56342050949277,99999.72799780533 -137.20996819571891,78.56327677767393,99997.47740585046 -137.21379284161983,78.56222731092134,99981.04432587085 -137.2419960123991,78.55447851631939,99859.69650402524 -137.52208483450192,78.47683437567964,98642.47045521626 -138.35429426663634,78.23846757516183,94890.4141583762 -139.13019503280304,78.00537142976404,91198.2736091392 -139.15151449533548,77.99881297413859,91094.05063598907 -139.1630211400031,77.99526859989575,91037.71774890184 -139.16900800303208,77.99342356003127,91008.39122977412 -139.17064478056994,77.99292018646454,91000.38995370694 -139.17172245744055,77.99258708783589,90995.09518829295 -139.17269539980617,77.99228711354085,90990.32690869115 -139.18125386994865,77.98964923572775,90948.39448372806 -139.2649696457909,77.96376476888585,90536.76549545983 -139.8521856510544,77.77846480819689,87581.31376934939 -139.96782556206568,77.74118593611783,86984.86167561785 -140.0828105378648,77.7038554017886,86386.94695540576 -140.12501968594182,77.69008584368316,86166.2416997937 -140.13849646938763,77.6856819973695,86095.63628174298 -140.15196425984215,77.6812774434383,86025.01058892976 -140.15676710615142,77.67970526362895,85999.79899639935 -140.15686369561183,77.67967417020661,85999.30036851749 -140.15694690212172,77.67964617376646,85998.8514047419 -140.15753752878982,77.67945306506986,85995.75461553765 -140.16132280493343,77.67821438383959,85975.89008514427 -140.19767568283908,77.66630040999496,85784.7914923628 -140.55761025373073,77.5468799908187,83865.66611208559 -141.1400697910943,77.34788617044225,80652.85998847077 -141.6853585757422,77.15488168496289,77518.56145749347 -142.1954541531164,76.96818681692376,74469.27092398988 -142.29279698191658,76.93186151070786,73873.93888475474 -142.3896270389054,76.89550126577768,73277.36439377401 -142.484933090886,76.85949184555217,72685.88222515558 -142.57974175418735,76.82344983792136,72093.19997729681 -142.61282875748964,76.81081870432237,71885.33297075711 -142.6250507585719,76.80614668176595,71808.42597904056 -142.62632564099096,76.80565831035285,71800.3861605292 -142.62760461090457,76.80516993320308,71792.34612461035 -142.62886426490886,76.804687490939,71784.40367235338 -142.63703620657932,76.80156099997016,71732.9293058022 -142.6775649662282,76.78602747389729,71477.11135571265 -143.07787415524803,76.6303919087572,68907.0423808944 -143.5855629613587,76.4270552429499,65529.83058571782 -144.11806533195573,76.20632516157822,61837.80280355931 -144.51811382688274,76.03526754195595,58957.06306662107 -144.8659106084704,75.88277507713188,56373.65957037096 -145.16168808398825,75.75024331022593,54115.88829823491 -145.45040685186737,75.6182925165978,51855.550342569564 -145.50169957768406,75.59457801367445,51447.91835066289 -145.50497837332324,75.59306022023718,51421.813747399334 -145.506258649941,75.59246603212688,51411.59378138746 -145.50634480861157,75.59242656556879,51410.91495135269 -145.50642840199828,75.59238833374374,51410.25735771773 -145.50676601804443,75.59223183170936,51407.565484996805 -145.5079308863966,75.59169313347893,51398.29959758253 -145.51262477639892,75.5895172924495,51360.87167266385 -145.53527786996116,75.57901088401482,51180.09186144574 -145.7591038768331,75.47432399743768,49373.853004304765 -145.9527306989511,75.3824743354507,47781.29214000016 -145.99095831074413,75.36419807735679,47463.476658856365 -145.99858594166835,75.36054693714192,47399.946819465666 -146.00272596303276,75.35856308194595,47365.42235765969 -146.0046091591405,75.35766101907308,47349.72276084719 -146.0046929921433,75.35762127392567,47349.03101408409 -146.0047727591585,75.35758355734978,47348.37457230648 -146.00511524734765,75.3574189178716,47345.50907239829 -146.00610427278667,75.35694415678114,47337.24585376365 -146.00915015535057,75.35548450583916,47311.839258223015 -146.02934872201013,75.34579822623844,47143.18805515888 -146.14950406585797,75.28789611561713,46133.08848530468 -146.31697580939522,75.20641035857655,44705.6090470852 -146.4466599999533,75.1426840913926,43583.977489823854 -146.55708955888042,75.08798824785825,42617.26939632197 -146.66531812063914,75.03399845707149,41659.087934240524 -146.78731228465085,74.97268667640991,40565.758860436 -146.92062687735162,74.90514583287612,39354.24991480258 -147.07141434830504,74.82808247783792,37961.59379421245 -147.19890067997295,74.76239036296285,36764.384799625295 -147.3210443640182,74.69901108765782,35599.08170597988 -147.43075490696583,74.64173767672403,34535.9318970772 -147.52737188477445,74.59105367638817,33585.7375862926 -147.61643218066368,74.5441518908917,32697.3119533434 -147.63375309998366,74.53501051974922,32523.008782086854 -147.6508974646339,74.52595917853643,32350.02665496006 -147.66771495678427,74.51707356774952,32179.816735189932 -147.66860239417633,74.51660615668628,32170.852085068596 -147.6694851531094,74.51613899716814,32161.89114053613 -147.66953780152204,74.51611166379891,32161.36680360026 -147.6695705644293,74.51609318809727,32161.012381339682 -147.66960441015146,74.5160764578369,32160.69144076804 -147.66970334011395,74.51602302483293,32159.66641280611 -147.67002570139005,74.51585301504558,32156.404945682425 -147.67089361738832,74.5153941772825,32147.60186207164 -147.67355913373754,74.5139850009403,32120.559168285567 -147.68035174187634,74.5103952152897,32051.6231156141 -147.74102794800467,74.47829335524462,31432.049117297403 -147.81477071682318,74.43921404992669,30669.50834849935 -147.88447981751415,74.40223474913968,29938.261776537816 -147.95323631969723,74.36574795522941,29205.938697638147 -148.01875605417487,74.330999902422,28496.745433673863 -148.0827920805,74.29709037421902,27791.52457667985 -148.14818994533735,74.26255596921108,27057.29941584398 -148.22394906331806,74.22274320766998,26186.1498661999 -148.2756000488336,74.19577015061856,25577.3727709864 -148.32343225275272,74.17095658268518,25001.03198210668 -148.36477343152245,74.14966978827083,24491.697483930635 -148.4014772127584,74.13092055541573,24029.53938820414 -148.43483722802773,74.11402723143136,23600.36635253444 -148.4654710220699,74.09865387359261,23197.544308899123 -148.49366386301384,74.08464439668326,22818.656684143334 -148.51931277039378,74.07202579276024,22466.27685340108 -148.5415787738711,74.06118094401808,22153.811952464486 -148.56423195933053,74.05026590991565,21829.106309552877 -148.5890968928511,74.03843347998071,21463.874147135004 -148.61538227269455,74.02611378710988,21066.64767293536 -148.64311922165388,74.0133488340401,20633.554513112827 -148.67275800027016,74.00000306851338,20152.63570053366 -148.6761380250793,73.99850357441115,20096.540714099778 -148.67695148637134,73.99814269134518,20082.97313488481 -148.67776321236067,73.99778284164414,20069.41813307328 -148.67797524659787,73.9976898953967,20065.912704661892 -148.67808485128273,73.99764125008593,20064.077364569683 -148.67814834055756,73.99761293321104,20063.00877396041 -148.67816884384547,73.9976030505677,20062.635795132377 -148.67819251726345,73.99759377808225,20062.2858262713 -148.6782541944447,73.99756655800728,20061.25836447725 -148.67845723241666,73.99747652591651,20057.85889088741 -148.67895154000377,73.99725822036498,20049.609111026748 -148.68022351301877,73.9966955691069,20028.301247828505 -148.68501322272192,73.99458464569575,19947.769328635663 -148.7129801810568,73.98245580939444,19465.409189067854 -148.74499140892152,73.96901579676599,18884.821617066158 -148.7744018816815,73.95713786498749,18320.676950652327 -148.80018760247052,73.94713513134721,17798.258675007877 -148.82398053128261,73.93827943848571,17290.17160379565 -148.8464707221657,73.9302682361367,16784.386807850195 -148.8680199831026,73.92294691267685,16274.24546198139 -148.88886402196454,73.91621929977354,15754.944742993346 -148.90917984078393,73.91001956497205,15222.45146827422 -148.92912434658925,73.90430153797969,14673.14785030692 -148.9488133387004,73.89903377292552,14103.749208760191 -148.96834812797306,73.8941986680679,13511.613737095775 -148.98777596378642,73.88979628456728,12895.967285093913 -149.00702527049975,73.88585078486895,12260.621803226804 -149.0258599290656,73.88240515801441,11616.662721111603 -149.02954009898644,73.881780517284,11488.498647978236 -149.0331847434527,73.88117767245912,11360.884181105008 -149.03645640579387,73.88064982749567,11245.755674204687 -149.03970042331898,73.88013894836823,11131.102321287663 -149.04284416700776,73.87965626451258,11019.665422821965 -149.04286151936554,73.87965331067053,11018.973747602087 -149.04286722452426,73.8796523744649,11018.754499409204 -149.04287292958554,73.87965143831899,11018.535253058724 -149.04288358242837,73.87965003029066,11018.205469274633 -149.0429283222173,73.8796430933172,11016.580309751676 -149.04307157429585,73.87962186764406,11011.603517475498 -149.0434880047615,73.8795586761354,10996.749786210774 -149.04547378068958,73.87926082569248,10925.97435046871 -149.05557239763414,73.87781878041609,10563.882736888858 -149.07024959094747,73.87593198568995,10031.167709350117 -149.08450695805263,73.87432882490582,9508.203453435333 -149.0985761817229,73.87295695201206,8988.645632952626 -149.1126449768618,73.87178072031396,8467.837397152955 -149.12717629026216,73.87075463314585,7930.82412871949 -149.14371751234265,73.86979631241239,7323.546131482978 -149.15774794327442,73.86913740193943,6813.903445779931 -149.17002078770506,73.86866185850673,6373.619921230754 -149.18215014752303,73.86827196703653,5944.183079894401 -149.1934664548376,73.8679705974403,5549.360533219811 -149.20425013952374,73.86773186629385,5178.882669569736 -149.2146608855453,73.86753986388352,4826.465558931647 -149.22479923364872,73.86738418684747,4488.4540258167035 -149.23472740095286,73.86725742881966,4162.513269559375 -149.24448368728542,73.86715403599057,3847.076055678106 -149.25410027129368,73.86706964709362,3540.8636028773185 -149.26359524436663,73.86700085005475,3243.079411306038 -149.27298149023045,73.86694486567167,2953.0231040865683 -149.2822710319394,73.86689944171336,2670.206092993621 -149.29146687841512,73.86686272942646,2394.265016113618 -149.30057151656467,73.86683320062835,2124.9074638498178 -149.30958283428052,73.86680958635361,1861.8543755715464 -149.3185066980907,73.86679084708251,1605.027616443432 -149.32733618239882,73.86677610509099,1354.1726277336322 -149.3360682729915,73.86676464387784,1109.2313021658445 -149.34470812343065,73.8667558644622,870.0578162463383 -149.35323981930634,73.86674927533383,636.630933974299 -149.3616723938299,73.86674446389829,408.65338201478176 -149.37000220845553,73.86674109772396,186.1148474943961 -149.3782255368182,73.86673890071718,-31.13194952718239</coordinates>
      </LineString>
      <styleUrl>#19050</styleUrl>
    </Placemark>
  </Document>
</kml>
